{
"type": "FeatureCollection",
"name": "case_study_municipalities",
"crs": { "type": "name", "properties": { "name": "urn:ogc:def:crs:OGC:1.3:CRS84" } },
"features": [
{ "type": "Feature", "properties": { "municipality_geoid": "72071", "municipality_name": "Isabela" }, "geometry": { "type": "Polygon", "coordinates": [ [ [ -67.103216370698803, 18.5133523789785 ], [ -67.098647, 18.515356 ], [ -67.090469, 18.516023 ], [ -67.083954085101894, 18.5144532065327 ], [ -67.081151590851405, 18.513777934908301 ], [ -67.079691, 18.513426 ], [ -67.075683399943799, 18.514398300461298 ], [ -67.074106, 18.514781 ], [ -67.068731, 18.512936 ], [ -67.052914418409202, 18.5148140036965 ], [ -67.051289, 18.515007 ], [ -67.044049503598202, 18.5138677069334 ], [ -67.038002, 18.512916 ], [ -67.028653788425203, 18.509174049349301 ], [ -67.0283043588325, 18.509034177858201 ], [ -67.028184, 18.508986 ], [ -67.023469837600999, 18.508469911105401 ], [ -67.022475, 18.508361 ], [ -67.019411, 18.510971 ], [ -67.017782630897997, 18.510268561140801 ], [ -67.016347727476898, 18.5096495786748 ], [ -67.014731119768797, 18.508952213395101 ], [ -66.988285, 18.497544 ], [ -66.986529, 18.495727 ], [ -66.982101178371806, 18.493843575366 ], [ -66.976943589308505, 18.491649735796699 ], [ -66.97567, 18.491108 ], [ -66.971461, 18.492542 ], [ -66.962817, 18.491004 ], [ -66.957474467285493, 18.4893461676306 ], [ -66.957515, 18.489187 ], [ -66.957479, 18.488644 ], [ -66.957192, 18.488215 ], [ -66.957702, 18.487652 ], [ -66.957729, 18.487182 ], [ -66.957238, 18.486322 ], [ -66.955932, 18.484625 ], [ -66.955859, 18.484555 ], [ -66.954777, 18.483554 ], [ -66.954043, 18.483254 ], [ -66.950526, 18.483407 ], [ -66.95265, 18.480398 ], [ -66.953019, 18.479567 ], [ -66.952592, 18.477123 ], [ -66.952802926784301, 18.476629922220202 ], [ -66.955622, 18.476714 ], [ -66.959472, 18.473343 ], [ -66.960575, 18.472474 ], [ -66.960933, 18.472291 ], [ -66.961322, 18.47234 ], [ -66.962256, 18.473195 ], [ -66.962706, 18.473448 ], [ -66.963462, 18.473019 ], [ -66.961798, 18.471336 ], [ -66.960055, 18.470484 ], [ -66.961055, 18.467069 ], [ -66.959202, 18.465781 ], [ -66.963274, 18.460465 ], [ -66.963579, 18.458394 ], [ -66.963615, 18.458318 ], [ -66.96377, 18.455376 ], [ -66.965126, 18.45539 ], [ -66.967732, 18.455463 ], [ -66.968526, 18.454839 ], [ -66.967727, 18.451581 ], [ -66.966596, 18.449869 ], [ -66.966049, 18.44988 ], [ -66.963567, 18.450149 ], [ -66.962675, 18.447872 ], [ -66.961529, 18.446662 ], [ -66.959851, 18.446915 ], [ -66.95899, 18.445841 ], [ -66.959239, 18.442817 ], [ -66.958273, 18.440449 ], [ -66.956329, 18.440055 ], [ -66.95446, 18.438394 ], [ -66.952027, 18.437306 ], [ -66.949512, 18.438041 ], [ -66.947728, 18.437706 ], [ -66.945195, 18.431382 ], [ -66.944314, 18.430659 ], [ -66.943022, 18.425848 ], [ -66.943402, 18.423806 ], [ -66.94182, 18.42195 ], [ -66.939863, 18.420502 ], [ -66.938959, 18.419309 ], [ -66.934931, 18.418391 ], [ -66.933541, 18.41878 ], [ -66.935061, 18.415372 ], [ -66.936724, 18.414684 ], [ -66.939445, 18.410985 ], [ -66.940555, 18.410315 ], [ -66.943645, 18.409922 ], [ -66.945876, 18.408507 ], [ -66.946001, 18.407213 ], [ -66.947771, 18.405685 ], [ -66.948131, 18.403023 ], [ -66.947208, 18.401482 ], [ -66.942598, 18.399453 ], [ -66.940368, 18.399403 ], [ -66.935047, 18.400743 ], [ -66.931442, 18.398646 ], [ -66.926697, 18.398306 ], [ -66.925585, 18.397867 ], [ -66.924533, 18.398531 ], [ -66.923379, 18.398454 ], [ -66.921885, 18.396548 ], [ -66.92202, 18.393204 ], [ -66.923615, 18.393073 ], [ -66.926991, 18.39274 ], [ -66.930257, 18.391983 ], [ -66.932045, 18.389551 ], [ -66.933329, 18.389291 ], [ -66.933316, 18.387935 ], [ -66.935018, 18.388321 ], [ -66.935365, 18.385497 ], [ -66.937011, 18.384616 ], [ -66.937208, 18.381612 ], [ -66.936263, 18.378277 ], [ -66.936724, 18.376919 ], [ -66.938329, 18.376432 ], [ -66.945207, 18.375314 ], [ -66.945685, 18.375288 ], [ -66.948266, 18.376666 ], [ -66.949185, 18.377198 ], [ -66.95087, 18.379642 ], [ -66.953807, 18.37982 ], [ -66.957106, 18.382036 ], [ -66.959765, 18.382301 ], [ -66.961674, 18.383994 ], [ -66.962947, 18.384174 ], [ -66.9699, 18.385568 ], [ -66.970571, 18.385884 ], [ -66.972876, 18.38628 ], [ -66.973999, 18.386302 ], [ -66.979401, 18.386335 ], [ -66.981089, 18.385053 ], [ -66.984292, 18.385105 ], [ -66.985061, 18.385486 ], [ -66.989352, 18.388146 ], [ -66.993662, 18.388704 ], [ -66.994451, 18.389563 ], [ -66.996021, 18.388828 ], [ -66.997803, 18.391089 ], [ -66.998587, 18.390599 ], [ -66.999623, 18.390477 ], [ -67.000287, 18.390891 ], [ -67.000583, 18.391474 ], [ -67.001881, 18.392898 ], [ -67.003245, 18.392901 ], [ -67.003949, 18.393326 ], [ -67.004656, 18.393395 ], [ -67.0059, 18.394126 ], [ -67.006054, 18.394228 ], [ -67.006724, 18.394259 ], [ -67.00845, 18.394254 ], [ -67.009142, 18.395125 ], [ -67.010478, 18.394441 ], [ -67.013014, 18.394366 ], [ -67.013834, 18.395127 ], [ -67.017604, 18.394854 ], [ -67.019893, 18.394256 ], [ -67.02059, 18.394796 ], [ -67.021823, 18.393532 ], [ -67.025045, 18.392063 ], [ -67.02638, 18.392052 ], [ -67.027173, 18.393376 ], [ -67.032421, 18.404471 ], [ -67.045482, 18.432329 ], [ -67.050962, 18.444187 ], [ -67.052813, 18.448354 ], [ -67.054111, 18.4526 ], [ -67.056507, 18.460954 ], [ -67.056404, 18.468803 ], [ -67.058655, 18.468809 ], [ -67.058814, 18.470418 ], [ -67.059236, 18.475981 ], [ -67.05846, 18.479982 ], [ -67.061387, 18.480641 ], [ -67.061621, 18.48111 ], [ -67.062781, 18.483706 ], [ -67.06366, 18.484565 ], [ -67.066975, 18.483757 ], [ -67.069457, 18.485987 ], [ -67.073584, 18.487893 ], [ -67.074011, 18.488644 ], [ -67.077061, 18.488966 ], [ -67.079263, 18.487965 ], [ -67.08252, 18.489411 ], [ -67.083061, 18.490724 ], [ -67.082567, 18.492182 ], [ -67.082837, 18.496648 ], [ -67.083295, 18.497097 ], [ -67.084815, 18.497445 ], [ -67.084943, 18.497512 ], [ -67.085142, 18.498777 ], [ -67.086921, 18.499264 ], [ -67.089321, 18.503316 ], [ -67.091669, 18.503494 ], [ -67.096273, 18.506747 ], [ -67.095839, 18.510227 ], [ -67.097347, 18.511864 ], [ -67.102676, 18.512801 ], [ -67.103216370698803, 18.5133523789785 ] ] ] } },
{ "type": "Feature", "properties": { "municipality_geoid": "72127", "municipality_name": "San Juan" }, "geometry": { "type": "Polygon", "coordinates": [ [ [ -66.124852, 18.470225 ], [ -66.12403, 18.471557 ], [ -66.121843008674205, 18.471000409770198 ], [ -66.118447029442805, 18.470136131600299 ], [ -66.118300089639504, 18.470098735357301 ], [ -66.1163577689438, 18.469604413907799 ], [ -66.116295505365898, 18.4695885678005 ], [ -66.115074554234596, 18.469277835214299 ], [ -66.113531, 18.468885 ], [ -66.112965905781294, 18.468817851373601 ], [ -66.1124399639384, 18.468755355118802 ], [ -66.109401079172699, 18.468394252614299 ], [ -66.108358029114498, 18.468270309780799 ], [ -66.1070451216344, 18.468114300515602 ], [ -66.106746981418794, 18.468078873315601 ], [ -66.103264, 18.467665 ], [ -66.098509, 18.46598 ], [ -66.097959876033002, 18.466036 ], [ -66.095435922640306, 18.466293394319901 ], [ -66.094784221248403, 18.466359855228799 ], [ -66.094597452387802, 18.466378902032101 ], [ -66.092586511629705, 18.466583979007801 ], [ -66.09139, 18.466706 ], [ -66.088519, 18.467803 ], [ -66.08619, 18.467078 ], [ -66.085690502047697, 18.466100102482098 ], [ -66.085041113996397, 18.464828756001999 ], [ -66.084225, 18.463231 ], [ -66.0832678378042, 18.462314692288199 ], [ -66.082749, 18.461818 ], [ -66.082657157755605, 18.461779435643098 ], [ -66.072768, 18.457627 ], [ -66.070651586281301, 18.457446188152499 ], [ -66.068932530170599, 18.457299323809099 ], [ -66.068897576642897, 18.457296337619798 ], [ -66.067089963700198, 18.457141907589101 ], [ -66.066061, 18.457054 ], [ -66.064611588087701, 18.456386214464899 ], [ -66.063057919302594, 18.455670394805701 ], [ -66.063016665077598, 18.455651387804 ], [ -66.061174242977799, 18.4548025312316 ], [ -66.061025593339494, 18.454734044090401 ], [ -66.060077, 18.454297 ], [ -66.059869966358505, 18.454303324593798 ], [ -66.0571603475899, 18.454386099730701 ], [ -66.055323379458599, 18.454442216587601 ], [ -66.053661, 18.454493 ], [ -66.051926177485001, 18.4538937389285 ], [ -66.047544, 18.45238 ], [ -66.047215426930606, 18.452451863482999 ], [ -66.045117219076303, 18.452910770613801 ], [ -66.044430015643798, 18.453061071526399 ], [ -66.043636373064103, 18.453234652155398 ], [ -66.043617669485698, 18.453238742887201 ], [ -66.042411205749005, 18.4535026132233 ], [ -66.038898, 18.454271 ], [ -66.036801632671896, 18.449976237483 ], [ -66.037563, 18.449269 ], [ -66.037391, 18.449093 ], [ -66.037796, 18.448539 ], [ -66.038228, 18.446999 ], [ -66.038248, 18.446367 ], [ -66.040448, 18.44653 ], [ -66.042969, 18.444174 ], [ -66.041905, 18.442999 ], [ -66.039191, 18.440822 ], [ -66.038329, 18.440307 ], [ -66.035878, 18.439285 ], [ -66.033351, 18.43741 ], [ -66.03272, 18.436691 ], [ -66.032, 18.434047 ], [ -66.031406, 18.431593 ], [ -66.03094, 18.430396 ], [ -66.029735, 18.427795 ], [ -66.029551, 18.427223 ], [ -66.024989, 18.423978 ], [ -66.02381, 18.423084 ], [ -66.022777, 18.422061 ], [ -66.020919, 18.4206 ], [ -66.019988, 18.419877 ], [ -66.017066, 18.418638 ], [ -66.014748, 18.41776 ], [ -66.012466, 18.417286 ], [ -66.011169, 18.416202 ], [ -66.008962, 18.413743 ], [ -66.007992, 18.413436 ], [ -66.007352, 18.413274 ], [ -66.005216, 18.412013 ], [ -66.003755, 18.411226 ], [ -66.000912, 18.41067 ], [ -65.999956, 18.410346 ], [ -65.996509, 18.408772 ], [ -65.995512, 18.408318 ], [ -65.993646, 18.407658 ], [ -65.99292, 18.407106 ], [ -65.992432, 18.405589 ], [ -65.992213, 18.404999 ], [ -65.991766, 18.403603 ], [ -65.991671, 18.401592 ], [ -65.99155, 18.399476 ], [ -65.991432, 18.398632 ], [ -65.991427, 18.398484 ], [ -65.992952, 18.397678 ], [ -65.995128, 18.397146 ], [ -65.997127, 18.39683 ], [ -65.997995, 18.395346 ], [ -65.99999, 18.394799 ], [ -66.002926, 18.394824 ], [ -66.003438, 18.392095 ], [ -66.003527, 18.388351 ], [ -66.002804, 18.384877 ], [ -66.002044, 18.383883 ], [ -66.00138, 18.383284 ], [ -66.0002, 18.380596 ], [ -65.999556, 18.380065 ], [ -66.002719, 18.379419 ], [ -66.002728, 18.379184 ], [ -66.004448, 18.379031 ], [ -66.005098, 18.379033 ], [ -66.006887, 18.378892 ], [ -66.007947, 18.378961 ], [ -66.008776, 18.37944 ], [ -66.010281, 18.379158 ], [ -66.012238, 18.38016 ], [ -66.012508, 18.380568 ], [ -66.013046, 18.380616 ], [ -66.013256, 18.38038 ], [ -66.013925, 18.379947 ], [ -66.015443, 18.379091 ], [ -66.016938, 18.378364 ], [ -66.023202, 18.379378 ], [ -66.025286, 18.379803 ], [ -66.027135, 18.377966 ], [ -66.028116, 18.376993 ], [ -66.029167, 18.375905 ], [ -66.030241, 18.374864 ], [ -66.030368, 18.373536 ], [ -66.031998, 18.373256 ], [ -66.034212, 18.369953 ], [ -66.034673, 18.369788 ], [ -66.035349, 18.369681 ], [ -66.035557, 18.368455 ], [ -66.035025, 18.36731 ], [ -66.035015, 18.36424 ], [ -66.034188, 18.362262 ], [ -66.034633, 18.360944 ], [ -66.034751, 18.358963 ], [ -66.034742, 18.358855 ], [ -66.034729, 18.358708 ], [ -66.034571, 18.357098 ], [ -66.034257, 18.356639 ], [ -66.033028, 18.356492 ], [ -66.032505, 18.355701 ], [ -66.034741, 18.353416 ], [ -66.034687, 18.351432 ], [ -66.036221, 18.348596 ], [ -66.036788, 18.3456 ], [ -66.036681, 18.345273 ], [ -66.035533, 18.344368 ], [ -66.03554, 18.342923 ], [ -66.034912, 18.340167 ], [ -66.034588, 18.339234 ], [ -66.033696, 18.335133 ], [ -66.035051, 18.334354 ], [ -66.034938, 18.333469 ], [ -66.03494, 18.332214 ], [ -66.03596, 18.327913 ], [ -66.035364, 18.325905 ], [ -66.036438, 18.323052 ], [ -66.035447, 18.320246 ], [ -66.035996, 18.31933 ], [ -66.03756, 18.317321 ], [ -66.041053, 18.315395 ], [ -66.041535, 18.312344 ], [ -66.042586, 18.312281 ], [ -66.044836, 18.311493 ], [ -66.045415, 18.311286 ], [ -66.04692, 18.309408 ], [ -66.047827, 18.306885 ], [ -66.047192, 18.3053 ], [ -66.047389, 18.30283 ], [ -66.047866, 18.302541 ], [ -66.045336, 18.299418 ], [ -66.048466, 18.297648 ], [ -66.050886, 18.301496 ], [ -66.05176, 18.302134 ], [ -66.05184, 18.302712 ], [ -66.053129, 18.303835 ], [ -66.052988, 18.303189 ], [ -66.056191, 18.30432 ], [ -66.05739, 18.302373 ], [ -66.059638, 18.303529 ], [ -66.060469, 18.302185 ], [ -66.062375, 18.303053 ], [ -66.062332, 18.302676 ], [ -66.064473, 18.303804 ], [ -66.066081, 18.303772 ], [ -66.066103, 18.303321 ], [ -66.06966, 18.301075 ], [ -66.070503, 18.300422 ], [ -66.070575, 18.300366 ], [ -66.070891, 18.299886 ], [ -66.071107, 18.2993 ], [ -66.071241, 18.299131 ], [ -66.071918, 18.299143 ], [ -66.07227, 18.299042 ], [ -66.072526, 18.298761 ], [ -66.072971, 18.29776 ], [ -66.078115, 18.297072 ], [ -66.080475, 18.297295 ], [ -66.082177, 18.300109 ], [ -66.085147, 18.300507 ], [ -66.085536, 18.303617 ], [ -66.083235, 18.305083 ], [ -66.082397, 18.306788 ], [ -66.083037, 18.310321 ], [ -66.084711, 18.312592 ], [ -66.08465, 18.314655 ], [ -66.085105, 18.315861 ], [ -66.085089, 18.316316 ], [ -66.088385, 18.31906 ], [ -66.087639, 18.321195 ], [ -66.088683, 18.323666 ], [ -66.087387, 18.328275 ], [ -66.088458, 18.330137 ], [ -66.08676, 18.333045 ], [ -66.087582, 18.334611 ], [ -66.089805, 18.335245 ], [ -66.092586, 18.337645 ], [ -66.094931, 18.337611 ], [ -66.095199, 18.339496 ], [ -66.095879, 18.337797 ], [ -66.096306, 18.337867 ], [ -66.095872, 18.339777 ], [ -66.099288, 18.341871 ], [ -66.099316, 18.34356 ], [ -66.098057, 18.344875 ], [ -66.097669, 18.349514 ], [ -66.098203, 18.349637 ], [ -66.098239, 18.350844 ], [ -66.096357, 18.353772 ], [ -66.097706, 18.355569 ], [ -66.097941, 18.355902 ], [ -66.096485, 18.354723 ], [ -66.094367, 18.354988 ], [ -66.093878, 18.355153 ], [ -66.092511, 18.35654 ], [ -66.090581, 18.356832 ], [ -66.089786, 18.356162 ], [ -66.088351, 18.35714 ], [ -66.08944, 18.359307 ], [ -66.089516, 18.359486 ], [ -66.089564, 18.359599 ], [ -66.090559, 18.361246 ], [ -66.091813, 18.361155 ], [ -66.091874, 18.36377 ], [ -66.089994, 18.366062 ], [ -66.089948, 18.366204 ], [ -66.090839, 18.367968 ], [ -66.091356, 18.368782 ], [ -66.092193, 18.36916 ], [ -66.092437, 18.372265 ], [ -66.090329, 18.374734 ], [ -66.090042, 18.375056 ], [ -66.091081, 18.375286 ], [ -66.091609, 18.375402 ], [ -66.093022, 18.375857 ], [ -66.093573, 18.376137 ], [ -66.09415, 18.376398 ], [ -66.094606, 18.377051 ], [ -66.095207, 18.377877 ], [ -66.097317, 18.378824 ], [ -66.097945, 18.37924 ], [ -66.100016, 18.379908 ], [ -66.100862, 18.379817 ], [ -66.100814, 18.379026 ], [ -66.101818, 18.379445 ], [ -66.103103, 18.380086 ], [ -66.103421, 18.380809 ], [ -66.103477, 18.380917 ], [ -66.103537, 18.38103 ], [ -66.103555, 18.381064 ], [ -66.1053, 18.382164 ], [ -66.10621, 18.382529 ], [ -66.106303, 18.382581 ], [ -66.106555, 18.383104 ], [ -66.104761, 18.384161 ], [ -66.105872, 18.386577 ], [ -66.107468, 18.386799 ], [ -66.107884, 18.38826 ], [ -66.108012, 18.391125 ], [ -66.107642, 18.391969 ], [ -66.108186, 18.394633 ], [ -66.107865, 18.396761 ], [ -66.108615, 18.398756 ], [ -66.108491, 18.398876 ], [ -66.106371, 18.401921 ], [ -66.105964, 18.401969 ], [ -66.105694, 18.401945 ], [ -66.10489, 18.401923 ], [ -66.102402, 18.402122 ], [ -66.100617, 18.401912 ], [ -66.098577, 18.401105 ], [ -66.09768, 18.40075 ], [ -66.096946, 18.400507 ], [ -66.096236, 18.401 ], [ -66.095164, 18.403031 ], [ -66.094981, 18.40582 ], [ -66.096817, 18.408646 ], [ -66.097995, 18.410071 ], [ -66.099228, 18.411015 ], [ -66.099795, 18.41188 ], [ -66.099813, 18.412005 ], [ -66.099687, 18.414025 ], [ -66.097865, 18.416424 ], [ -66.098682, 18.417975 ], [ -66.099409, 18.419351 ], [ -66.104223, 18.42416 ], [ -66.106881, 18.426886 ], [ -66.107547, 18.427258 ], [ -66.107757, 18.427517 ], [ -66.107238295984303, 18.427810575899102 ], [ -66.107071913037501, 18.427904745255201 ], [ -66.101151110206601, 18.431255798961601 ], [ -66.085682, 18.440011 ], [ -66.084143008479003, 18.43981099258 ], [ -66.082814308507395, 18.4396383146609 ], [ -66.082654636203301, 18.4396175636397 ], [ -66.082371498058393, 18.439580766991298 ], [ -66.081927, 18.439523 ], [ -66.081895222663306, 18.440042795066599 ], [ -66.0818891109638, 18.440142766667702 ], [ -66.081694110955794, 18.443332462616201 ], [ -66.081664, 18.443825 ], [ -66.082707592843704, 18.444670564466598 ], [ -66.086507736587706, 18.4477496067746 ], [ -66.086634252389302, 18.447852115398501 ], [ -66.087287, 18.448381 ], [ -66.093427, 18.446963 ], [ -66.094982393236705, 18.447926091787402 ], [ -66.100105698581501, 18.451098417078299 ], [ -66.101179, 18.451763 ], [ -66.1032282928131, 18.453501007828802 ], [ -66.106551, 18.456319 ], [ -66.104545, 18.459645 ], [ -66.104523720743501, 18.459645016223099 ], [ -66.10061, 18.459648 ], [ -66.1005031541101, 18.460551136542399 ], [ -66.100462, 18.460899 ], [ -66.101778294901706, 18.4615492060035 ], [ -66.10444, 18.462864 ], [ -66.106847219336601, 18.4632529504389 ], [ -66.1083732657968, 18.463499523915399 ], [ -66.110930664770393, 18.463912739877198 ], [ -66.111087, 18.463938 ], [ -66.111824095943703, 18.4638265744329 ], [ -66.115281, 18.463304 ], [ -66.115915, 18.460455 ], [ -66.117601, 18.460643 ], [ -66.11856, 18.462438 ], [ -66.1186652147789, 18.462726488589201 ], [ -66.118802246381094, 18.463102215782499 ], [ -66.118804495115597, 18.463108381591699 ], [ -66.118873827869805, 18.4632984851937 ], [ -66.118983100626195, 18.463598100358499 ], [ -66.119517, 18.465062 ], [ -66.119550427871999, 18.465083035542701 ], [ -66.1202475335934, 18.4655217113026 ], [ -66.120261794525902, 18.465530685444101 ], [ -66.122372904971101, 18.466859168270201 ], [ -66.124305, 18.468075 ], [ -66.124852, 18.470225 ] ] ] } }
]
}
