{
"type": "FeatureCollection",
"name": "case_study_high_coverage_barrios",
"crs": { "type": "name", "properties": { "name": "urn:ogc:def:crs:OGC:1.3:CRS84" } },
"features": [
{ "type": "Feature", "properties": { "study_area_label": "Puerto Nuevo, San Juan", "municipality_name": "San Juan" }, "geometry": { "type": "Polygon", "coordinates": [ [ [ -66.1085016, 18.3988697 ], [ -66.1085006, 18.3988656 ], [ -66.1084314, 18.3985679 ], [ -66.108427, 18.3985491 ], [ -66.1083153, 18.3983364 ], [ -66.1082409, 18.398052 ], [ -66.1080735, 18.3977503 ], [ -66.1079417, 18.3974204 ], [ -66.1079242, 18.3973767 ], [ -66.1079105, 18.3972909 ], [ -66.1078872, 18.3971459 ], [ -66.1078685, 18.3967551 ], [ -66.1078872, 18.3966471 ], [ -66.1079057, 18.3965412 ], [ -66.1079954, 18.3962411 ], [ -66.1080171, 18.3961683 ], [ -66.1080916, 18.3959549 ], [ -66.1081659, 18.3956886 ], [ -66.1081659, 18.3956883 ], [ -66.1081758, 18.3955763 ], [ -66.1081848, 18.3954756 ], [ -66.1081514, 18.3952838 ], [ -66.1081476, 18.3952617 ], [ -66.1081476, 18.3952507 ], [ -66.1081474, 18.3949953 ], [ -66.1081633, 18.3948888 ], [ -66.1081846, 18.3947465 ], [ -66.1081497, 18.3945637 ], [ -66.1081472, 18.3945506 ], [ -66.1080544, 18.3942671 ], [ -66.1079772, 18.3940317 ], [ -66.107961, 18.3939824 ], [ -66.1079262, 18.3937838 ], [ -66.1079048, 18.3936621 ], [ -66.1078709, 18.3936012 ], [ -66.1078475, 18.3935593 ], [ -66.1077563, 18.3933957 ], [ -66.1076446, 18.3931469 ], [ -66.1075887, 18.3928447 ], [ -66.1076228, 18.3926169 ], [ -66.107626, 18.3925958 ], [ -66.107729, 18.3923504 ], [ -66.1077375, 18.39233 ], [ -66.1076817, 18.3921339 ], [ -66.1076444, 18.3918501 ], [ -66.1077486, 18.3916007 ], [ -66.1077559, 18.3915832 ], [ -66.1078777, 18.3914536 ], [ -66.1079232, 18.3914051 ], [ -66.1079285, 18.3913668 ], [ -66.1079297, 18.3913575 ], [ -66.1079474, 18.3913238 ], [ -66.1079548, 18.3913098 ], [ -66.1079917, 18.3912395 ], [ -66.1080166, 18.3911921 ], [ -66.1080095, 18.3911548 ], [ -66.1079827, 18.3910149 ], [ -66.1079791, 18.3909963 ], [ -66.1079416, 18.3907655 ], [ -66.1078672, 18.3905172 ], [ -66.1078302, 18.3902864 ], [ -66.1078095, 18.3899837 ], [ -66.1077926, 18.3897881 ], [ -66.1077956, 18.3897663 ], [ -66.10783, 18.3895223 ], [ -66.1078115, 18.3893267 ], [ -66.1078674, 18.3890601 ], [ -66.1079188, 18.3888805 ], [ -66.1079212, 18.3888634 ], [ -66.1079599, 18.3887218 ], [ -66.107892, 18.3885562 ], [ -66.1078858, 18.3884904 ], [ -66.1077924, 18.3883129 ], [ -66.1076624, 18.388136 ], [ -66.1074948, 18.3877983 ], [ -66.1073829, 18.3875313 ], [ -66.1073084, 18.3871047 ], [ -66.1073454, 18.3868378 ], [ -66.1057996, 18.3867394 ], [ -66.1056887, 18.3867323 ], [ -66.1054654, 18.3872831 ], [ -66.1052978, 18.3875491 ], [ -66.1051494, 18.3879757 ], [ -66.1049445, 18.3884207 ], [ -66.1047024, 18.3888289 ], [ -66.1045354, 18.3890961 ], [ -66.1044234, 18.3893269 ], [ -66.1041627, 18.3893263 ], [ -66.1039298, 18.3892017 ], [ -66.1038652, 18.3891671 ], [ -66.1035673, 18.3890599 ], [ -66.103344, 18.3890429 ], [ -66.1028972, 18.3890428 ], [ -66.1026735, 18.3890958 ], [ -66.1024315, 18.3890786 ], [ -66.1022266, 18.3890247 ], [ -66.1019853, 18.3889713 ], [ -66.1017618, 18.3889713 ], [ -66.1013704, 18.3889721 ], [ -66.1010539, 18.3890248 ], [ -66.1006818, 18.3891139 ], [ -66.1004773, 18.3891492 ], [ -66.1001791, 18.3891322 ], [ -66.0999187, 18.3891146 ], [ -66.0996769, 18.3891143 ], [ -66.0994721, 18.3891315 ], [ -66.0992112, 18.3891501 ], [ -66.0988394, 18.3892211 ], [ -66.0983739, 18.389381 ], [ -66.0978338, 18.3895409 ], [ -66.0974429, 18.3896658 ], [ -66.0971452, 18.3897538 ], [ -66.0968103, 18.3898435 ], [ -66.0964938, 18.3899323 ], [ -66.0962704, 18.3900034 ], [ -66.0959541, 18.3900391 ], [ -66.0952839, 18.390074 ], [ -66.0948001, 18.3901275 ], [ -66.0945391, 18.3900738 ], [ -66.0942226, 18.3898794 ], [ -66.0939805, 18.3897188 ], [ -66.0937758, 18.3895949 ], [ -66.0935713, 18.389524 ], [ -66.0933481, 18.3894698 ], [ -66.0931244, 18.3894528 ], [ -66.0927893, 18.3894172 ], [ -66.0925472, 18.3892566 ], [ -66.092417, 18.3890977 ], [ -66.0922684, 18.3888663 ], [ -66.0920078, 18.3887235 ], [ -66.0917471, 18.3886529 ], [ -66.0913558, 18.3885464 ], [ -66.0909093, 18.3884222 ], [ -66.09063, 18.3883682 ], [ -66.0903507, 18.3883154 ], [ -66.0900345, 18.388315 ], [ -66.0894015, 18.3883505 ], [ -66.0885269, 18.3884397 ], [ -66.0880428, 18.3885113 ], [ -66.0877632, 18.3885465 ], [ -66.0869631, 18.3890623 ], [ -66.085902, 18.3897729 ], [ -66.084946, 18.3904324 ], [ -66.0848971, 18.3904661 ], [ -66.0848565, 18.3904825 ], [ -66.084543, 18.3906086 ], [ -66.0843571, 18.3906971 ], [ -66.0840034, 18.3907853 ], [ -66.0835756, 18.3908397 ], [ -66.0827379, 18.3908922 ], [ -66.0824215, 18.390928 ], [ -66.0818069, 18.3909637 ], [ -66.0812858, 18.3910166 ], [ -66.080895, 18.3910884 ], [ -66.0804482, 18.3911594 ], [ -66.0800571, 18.3912121 ], [ -66.0798061, 18.3912313 ], [ -66.079592, 18.3912478 ], [ -66.0791079, 18.3912482 ], [ -66.078903, 18.3911942 ], [ -66.078438, 18.3909816 ], [ -66.0780653, 18.3909285 ], [ -66.0777862, 18.3909637 ], [ -66.0775741, 18.3910274 ], [ -66.0774327, 18.39107 ], [ -66.0771347, 18.3912482 ], [ -66.0768367, 18.3913903 ], [ -66.0766534, 18.3914898 ], [ -66.0765761, 18.3915319 ], [ -66.0763669, 18.391595 ], [ -66.0759249, 18.3917283 ], [ -66.0757388, 18.3917638 ], [ -66.0754038, 18.3917812 ], [ -66.0750315, 18.39171 ], [ -66.0732172, 18.3911378 ], [ -66.0729701, 18.3910599 ], [ -66.0729242, 18.3910454 ], [ -66.0728601, 18.3911225 ], [ -66.0726672, 18.3913541 ], [ -66.0725186, 18.3915143 ], [ -66.0723693, 18.3917095 ], [ -66.072283, 18.3918745 ], [ -66.0722575, 18.3919233 ], [ -66.072109, 18.3922077 ], [ -66.0719229, 18.3928301 ], [ -66.0712155, 18.3951227 ], [ -66.0712075, 18.3952518 ], [ -66.0711968, 18.3954237 ], [ -66.0711967, 18.397396 ], [ -66.0711967, 18.3981787 ], [ -66.0711963, 18.398374 ], [ -66.071271, 18.3985692 ], [ -66.0713271, 18.3987473 ], [ -66.071397, 18.3988198 ], [ -66.0715503, 18.3989787 ], [ -66.0718667, 18.3992094 ], [ -66.0718623, 18.3992255 ], [ -66.0718165, 18.3993935 ], [ -66.0714015, 18.4009154 ], [ -66.0713041, 18.4010863 ], [ -66.071146, 18.4013638 ], [ -66.0692044, 18.4047717 ], [ -66.0692787, 18.40502 ], [ -66.0692045, 18.4052514 ], [ -66.0689809, 18.4055008 ], [ -66.0686803, 18.4056699 ], [ -66.0686647, 18.4056787 ], [ -66.0681805, 18.4058563 ], [ -66.0680687, 18.406034 ], [ -66.0682552, 18.4061227 ], [ -66.0684473, 18.406239 ], [ -66.0684599, 18.4062466 ], [ -66.068553, 18.4064783 ], [ -66.0686274, 18.4066916 ], [ -66.0688881, 18.4066911 ], [ -66.0689306, 18.4066551 ], [ -66.0690553, 18.4065493 ], [ -66.0692417, 18.4064066 ], [ -66.069558, 18.4062647 ], [ -66.0697441, 18.4064426 ], [ -66.0697999, 18.4067086 ], [ -66.0696884, 18.4068683 ], [ -66.0695766, 18.4071171 ], [ -66.0695393, 18.407366 ], [ -66.0694648, 18.4075793 ], [ -66.0694839, 18.4077748 ], [ -66.0694465, 18.4079886 ], [ -66.0694091, 18.4082375 ], [ -66.0692416, 18.4084324 ], [ -66.0693348, 18.4087171 ], [ -66.0693805, 18.4087372 ], [ -66.0695766, 18.4088236 ], [ -66.0698931, 18.4089831 ], [ -66.0700982, 18.4091973 ], [ -66.0703029, 18.4093213 ], [ -66.0705633, 18.4094461 ], [ -66.0707312, 18.4095875 ], [ -66.0706752, 18.409783 ], [ -66.0705261, 18.4099963 ], [ -66.0706006, 18.4101746 ], [ -66.0707305, 18.4104227 ], [ -66.0708239, 18.4107435 ], [ -66.0708328, 18.4108141 ], [ -66.0708796, 18.4111868 ], [ -66.0710473, 18.4113293 ], [ -66.0712892, 18.4112935 ], [ -66.0714754, 18.4112231 ], [ -66.0716464, 18.4113043 ], [ -66.0716989, 18.4113292 ], [ -66.0717212, 18.4113931 ], [ -66.0717733, 18.4115426 ], [ -66.071848, 18.4117378 ], [ -66.0719407, 18.4119515 ], [ -66.0721082, 18.4122181 ], [ -66.0722944, 18.4123248 ], [ -66.0724738, 18.4122962 ], [ -66.07263, 18.4122713 ], [ -66.0728345, 18.4123422 ], [ -66.0727922, 18.4125703 ], [ -66.0727784, 18.412645 ], [ -66.0725922, 18.4127866 ], [ -66.0724807, 18.4130173 ], [ -66.0728157, 18.4134446 ], [ -66.0729277, 18.4136393 ], [ -66.0729459, 18.413889 ], [ -66.0729836, 18.4143151 ], [ -66.073207, 18.4145285 ], [ -66.073356, 18.4147057 ], [ -66.0734673, 18.4150077 ], [ -66.0735793, 18.4152035 ], [ -66.0737651, 18.41515 ], [ -66.0738211, 18.4149194 ], [ -66.0738681, 18.4147248 ], [ -66.073877, 18.4146878 ], [ -66.0740633, 18.4145462 ], [ -66.0743241, 18.4144746 ], [ -66.0743049, 18.4142791 ], [ -66.074156, 18.4141368 ], [ -66.0740815, 18.4139246 ], [ -66.0742491, 18.4137997 ], [ -66.0744543, 18.4137645 ], [ -66.0746031, 18.4136393 ], [ -66.0746401, 18.4134085 ], [ -66.0747708, 18.4131961 ], [ -66.0750872, 18.4128759 ], [ -66.0753103, 18.4128218 ], [ -66.0754782, 18.4129643 ], [ -66.0755057, 18.4131485 ], [ -66.0755154, 18.4132132 ], [ -66.0755342, 18.4136401 ], [ -66.0756212, 18.413691 ], [ -66.0757758, 18.4137815 ], [ -66.076004, 18.4138404 ], [ -66.0760549, 18.4138535 ], [ -66.0764276, 18.4139067 ], [ -66.0767439, 18.4139421 ], [ -66.0768091, 18.4139688 ], [ -66.0770045, 18.4140488 ], [ -66.0772097, 18.4141908 ], [ -66.0774514, 18.4144394 ], [ -66.077824, 18.414777 ], [ -66.0780656, 18.4150618 ], [ -66.0782334, 18.4153104 ], [ -66.0782707, 18.4155942 ], [ -66.0783079, 18.415772 ], [ -66.0782892, 18.4160392 ], [ -66.0783077, 18.4162347 ], [ -66.0783448, 18.4165186 ], [ -66.0785496, 18.4168558 ], [ -66.0788662, 18.4168742 ], [ -66.0791458, 18.4168391 ], [ -66.0794438, 18.416838 ], [ -66.0796486, 18.4169631 ], [ -66.0796482, 18.4171944 ], [ -66.0795926, 18.4174069 ], [ -66.0795363, 18.4176566 ], [ -66.0795363, 18.4176974 ], [ -66.0795365, 18.417994 ], [ -66.0796857, 18.4182243 ], [ -66.0797328, 18.4182493 ], [ -66.0800209, 18.4184021 ], [ -66.0802444, 18.4184733 ], [ -66.0806168, 18.4186156 ], [ -66.080784, 18.4187931 ], [ -66.0809146, 18.4190062 ], [ -66.0811005, 18.4193093 ], [ -66.0812121, 18.419557 ], [ -66.0813427, 18.4199134 ], [ -66.0815474, 18.4202506 ], [ -66.0817333, 18.4203393 ], [ -66.0820126, 18.4203572 ], [ -66.0821991, 18.4205169 ], [ -66.0823481, 18.4208014 ], [ -66.0825898, 18.4209078 ], [ -66.0828695, 18.4207654 ], [ -66.0830179, 18.4204821 ], [ -66.0831669, 18.4203038 ], [ -66.0834463, 18.4201434 ], [ -66.0837816, 18.4200018 ], [ -66.0840979, 18.4197889 ], [ -66.0844145, 18.419735 ], [ -66.0845635, 18.4199134 ], [ -66.0846195, 18.4200903 ], [ -66.0848241, 18.4202323 ], [ -66.0848298, 18.4202327 ], [ -66.0851217, 18.4202504 ], [ -66.085457, 18.4202499 ], [ -66.0856807, 18.4202681 ], [ -66.0859837, 18.420381 ], [ -66.0860156, 18.4203929 ], [ -66.0861462, 18.4206059 ], [ -66.0861833, 18.4208548 ], [ -66.0861646, 18.4210859 ], [ -66.086165, 18.4212811 ], [ -66.0861835, 18.4215116 ], [ -66.0861832, 18.421743 ], [ -66.0861645, 18.4220452 ], [ -66.0863509, 18.4222411 ], [ -66.0865927, 18.4223475 ], [ -66.0868906, 18.4225247 ], [ -66.0871888, 18.42272 ], [ -66.0874305, 18.4230048 ], [ -66.0876915, 18.4232007 ], [ -66.0877575, 18.4232366 ], [ -66.0878849, 18.4233058 ], [ -66.0879293, 18.4233299 ], [ -66.0879522, 18.4233424 ], [ -66.0881568, 18.4234132 ], [ -66.0884919, 18.423485 ], [ -66.0887526, 18.4235917 ], [ -66.0888273, 18.423787 ], [ -66.0888083, 18.424035 ], [ -66.0888272, 18.4243907 ], [ -66.0889578, 18.4246038 ], [ -66.0889933, 18.4246377 ], [ -66.0891067, 18.4247461 ], [ -66.0894417, 18.4248348 ], [ -66.0896095, 18.4250845 ], [ -66.0896345, 18.4251081 ], [ -66.0897585, 18.4252256 ], [ -66.0899129, 18.4253198 ], [ -66.0899633, 18.4253506 ], [ -66.090354, 18.4253859 ], [ -66.09054, 18.4253324 ], [ -66.0907822, 18.4251725 ], [ -66.091024, 18.4250306 ], [ -66.0912291, 18.4250304 ], [ -66.0914525, 18.4251376 ], [ -66.0916067, 18.425358 ], [ -66.0916385, 18.4254034 ], [ -66.0917501, 18.4255812 ], [ -66.0919176, 18.4257418 ], [ -66.0921039, 18.4258485 ], [ -66.0921168, 18.4258516 ], [ -66.0924766, 18.4259366 ], [ -66.0928118, 18.4259012 ], [ -66.0932584, 18.4259904 ], [ -66.0933516, 18.4261498 ], [ -66.0933459, 18.4261688 ], [ -66.093277, 18.4263992 ], [ -66.0931842, 18.4266122 ], [ -66.0931097, 18.4267894 ], [ -66.0929978, 18.4272166 ], [ -66.0930167, 18.4275362 ], [ -66.09311, 18.4278921 ], [ -66.0932031, 18.4281226 ], [ -66.0933703, 18.4284074 ], [ -66.0933806, 18.4284228 ], [ -66.0935007, 18.4286023 ], [ -66.0936317, 18.4287645 ], [ -66.0936872, 18.4288332 ], [ -66.0939102, 18.4289574 ], [ -66.0940194, 18.4289203 ], [ -66.0940689, 18.4289036 ], [ -66.0941713, 18.4288688 ], [ -66.0943386, 18.4287619 ], [ -66.0943809, 18.4286813 ], [ -66.0945061, 18.4284428 ], [ -66.0945433, 18.428229 ], [ -66.0945992, 18.4279985 ], [ -66.0946736, 18.4278021 ], [ -66.0947855, 18.4275713 ], [ -66.0949343, 18.4273761 ], [ -66.0951947, 18.4272164 ], [ -66.0954931, 18.4271274 ], [ -66.0958463, 18.4270379 ], [ -66.0960025, 18.4270506 ], [ -66.0962933, 18.4270741 ], [ -66.0965912, 18.4271092 ], [ -66.0967964, 18.4272511 ], [ -66.0971126, 18.4274998 ], [ -66.0973363, 18.427589 ], [ -66.0976899, 18.427696 ], [ -66.0979692, 18.4277488 ], [ -66.0982297, 18.4278736 ], [ -66.0982989, 18.4280162 ], [ -66.0983417, 18.4281044 ], [ -66.0983046, 18.4283002 ], [ -66.098286, 18.4283965 ], [ -66.0982671, 18.4284948 ], [ -66.0982484, 18.428691 ], [ -66.0982856, 18.4288687 ], [ -66.0984032, 18.4290316 ], [ -66.0984184, 18.4290526 ], [ -66.0984908, 18.4291529 ], [ -66.0986766, 18.4292065 ], [ -66.098919, 18.4292057 ], [ -66.0992726, 18.4292055 ], [ -66.0994775, 18.4292233 ], [ -66.0997382, 18.429295 ], [ -66.0999613, 18.4294192 ], [ -66.0999624, 18.4294208 ], [ -66.1003526, 18.4299872 ], [ -66.1005811, 18.4303758 ], [ -66.101205, 18.4314371 ], [ -66.1012403, 18.4314885 ], [ -66.1012815, 18.4314643 ], [ -66.1071016, 18.4280474 ], [ -66.1070504, 18.427966 ], [ -66.1071846, 18.4278878 ], [ -66.1072141, 18.4279014 ], [ -66.1072202, 18.4279518 ], [ -66.1072383, 18.4279649 ], [ -66.1074068, 18.4279997 ], [ -66.1074535, 18.4281265 ], [ -66.1071734, 18.429143 ], [ -66.1072774, 18.4291706 ], [ -66.1075531, 18.428123 ], [ -66.1075808, 18.4281256 ], [ -66.1076247, 18.4279794 ], [ -66.1076727, 18.427936 ], [ -66.1076993, 18.4279626 ], [ -66.1077565, 18.4279125 ], [ -66.1077297, 18.4278853 ], [ -66.1078981, 18.4277414 ], [ -66.107927, 18.4277481 ], [ -66.1079306, 18.427806 ], [ -66.1079721, 18.4278078 ], [ -66.1079691, 18.4278643 ], [ -66.1079895, 18.427866 ], [ -66.1079932, 18.4277583 ], [ -66.1080208, 18.4277847 ], [ -66.1081369, 18.4278115 ], [ -66.1081823, 18.4278561 ], [ -66.1081819, 18.4278818 ], [ -66.1083831, 18.4279368 ], [ -66.1083955, 18.4278544 ], [ -66.1080839, 18.4277589 ], [ -66.1079502, 18.4276992 ], [ -66.1079363, 18.427693 ], [ -66.1077043, 18.4275894 ], [ -66.1074275, 18.4274274 ], [ -66.1069464, 18.4269301 ], [ -66.1067569, 18.4267343 ], [ -66.1063842, 18.4263618 ], [ -66.1058628, 18.425829 ], [ -66.1050102, 18.4249804 ], [ -66.1049877, 18.424958 ], [ -66.1049736, 18.4249422 ], [ -66.104448, 18.4243538 ], [ -66.10388, 18.4237994 ], [ -66.1036657, 18.4235902 ], [ -66.1034528, 18.4233579 ], [ -66.1030142, 18.4228793 ], [ -66.1021948, 18.422008 ], [ -66.1010403, 18.4207646 ], [ -66.1003327, 18.4200891 ], [ -66.0998486, 18.4195557 ], [ -66.0995507, 18.4192724 ], [ -66.0991598, 18.4188274 ], [ -66.0990581, 18.4187076 ], [ -66.0988433, 18.4184546 ], [ -66.0986565, 18.4181346 ], [ -66.0985799, 18.4179583 ], [ -66.098489, 18.4177618 ], [ -66.0983959, 18.4175302 ], [ -66.0982842, 18.4173174 ], [ -66.0981353, 18.4170679 ], [ -66.0980571, 18.4169189 ], [ -66.0980237, 18.4168552 ], [ -66.0978933, 18.416518 ], [ -66.097856, 18.4162691 ], [ -66.0978562, 18.4160197 ], [ -66.0979362, 18.4158361 ], [ -66.0979491, 18.4158067 ], [ -66.098047, 18.4157548 ], [ -66.0981166, 18.4157179 ], [ -66.0982654, 18.4155937 ], [ -66.098545, 18.4153452 ], [ -66.0988055, 18.4150422 ], [ -66.0989093, 18.4149079 ], [ -66.0989203, 18.4148937 ], [ -66.099066, 18.4147054 ], [ -66.0992521, 18.4144915 ], [ -66.0994381, 18.4142958 ], [ -66.0996986, 18.41403 ], [ -66.0997887, 18.4138235 ], [ -66.099792, 18.4138159 ], [ -66.0998087, 18.4135908 ], [ -66.0998104, 18.4135678 ], [ -66.0997803, 18.4135008 ], [ -66.0997269, 18.4133816 ], [ -66.0996988, 18.413319 ], [ -66.0996057, 18.4131235 ], [ -66.0995171, 18.4128879 ], [ -66.0995122, 18.4128748 ], [ -66.0995137, 18.4128688 ], [ -66.0995675, 18.4126458 ], [ -66.0995681, 18.4126432 ], [ -66.0995685, 18.4126427 ], [ -66.0997168, 18.412448 ], [ -66.0997415, 18.4124009 ], [ -66.099795, 18.4122986 ], [ -66.0998287, 18.4122341 ], [ -66.0998225, 18.4121244 ], [ -66.0998203, 18.4120862 ], [ -66.0998104, 18.4119144 ], [ -66.099736, 18.41163 ], [ -66.0996228, 18.411471 ], [ -66.0995934, 18.4114325 ], [ -66.0995281, 18.4113479 ], [ -66.0994474, 18.4112516 ], [ -66.0994373, 18.4112397 ], [ -66.0992331, 18.4109903 ], [ -66.0989907, 18.4108489 ], [ -66.0989402, 18.4108133 ], [ -66.0985624, 18.4105466 ], [ -66.0984156, 18.4104205 ], [ -66.0981717, 18.4102269 ], [ -66.0981257, 18.4101828 ], [ -66.0980041, 18.4100663 ], [ -66.097762, 18.4098357 ], [ -66.0975011, 18.4096399 ], [ -66.0972964, 18.4094449 ], [ -66.0971291, 18.4092313 ], [ -66.0970665, 18.4091582 ], [ -66.0969616, 18.4090357 ], [ -66.0969612, 18.4090347 ], [ -66.0968685, 18.4087691 ], [ -66.0967938, 18.4084677 ], [ -66.0967745, 18.4084344 ], [ -66.0967007, 18.4083071 ], [ -66.0966483, 18.4082515 ], [ -66.096624, 18.4082212 ], [ -66.0966118, 18.408208 ], [ -66.0965368, 18.4081267 ], [ -66.0965075, 18.4080924 ], [ -66.096446, 18.4080044 ], [ -66.0963997, 18.4079381 ], [ -66.0963845, 18.4079163 ], [ -66.0963806, 18.4078871 ], [ -66.0963657, 18.4077753 ], [ -66.0963468, 18.4076324 ], [ -66.0963154, 18.4075198 ], [ -66.096308, 18.40749 ], [ -66.0963027, 18.4074741 ], [ -66.0962726, 18.4073661 ], [ -66.0962315, 18.407302 ], [ -66.0962178, 18.4072806 ], [ -66.0962034, 18.4072589 ], [ -66.0961197, 18.407137 ], [ -66.0960847, 18.4070895 ], [ -66.0960512, 18.4070441 ], [ -66.0959747, 18.4069394 ], [ -66.0956207, 18.4066191 ], [ -66.0953043, 18.4062813 ], [ -66.0951733, 18.4061565 ], [ -66.0950622, 18.4060507 ], [ -66.0949323, 18.4058727 ], [ -66.0948388, 18.4056241 ], [ -66.0948761, 18.405233 ], [ -66.0949508, 18.4049486 ], [ -66.0949691, 18.4046645 ], [ -66.0949316, 18.4044337 ], [ -66.0948757, 18.4041315 ], [ -66.0948576, 18.4038829 ], [ -66.0948756, 18.4036868 ], [ -66.0949336, 18.4034568 ], [ -66.0949874, 18.4032608 ], [ -66.095043, 18.4029761 ], [ -66.0951738, 18.4026565 ], [ -66.095248, 18.4024251 ], [ -66.0953784, 18.4022296 ], [ -66.0957509, 18.401697 ], [ -66.0959737, 18.4013765 ], [ -66.0961044, 18.401164 ], [ -66.0962159, 18.4009321 ], [ -66.0963463, 18.4006655 ], [ -66.0964953, 18.4005233 ], [ -66.096687, 18.4004622 ], [ -66.0967182, 18.4004523 ], [ -66.0976305, 18.4007902 ], [ -66.0985798, 18.4011456 ], [ -66.0995669, 18.4015365 ], [ -66.0999951, 18.4016966 ], [ -66.1003672, 18.4018208 ], [ -66.1007955, 18.4019808 ], [ -66.1010187, 18.4020339 ], [ -66.1012606, 18.4020873 ], [ -66.1017079, 18.4021404 ], [ -66.1023032, 18.4021754 ], [ -66.102769, 18.4021758 ], [ -66.1031597, 18.4021761 ], [ -66.1034018, 18.4021584 ], [ -66.1039228, 18.4020693 ], [ -66.1039547, 18.402064 ], [ -66.1043509, 18.401998 ], [ -66.1046308, 18.4019643 ], [ -66.1046365, 18.4019638 ], [ -66.1048353, 18.4019444 ], [ -66.1051332, 18.4019445 ], [ -66.1056167, 18.4019801 ], [ -66.1063615, 18.4020513 ], [ -66.1064916, 18.4018016 ], [ -66.1065559, 18.4017828 ], [ -66.1066507, 18.4017551 ], [ -66.1067337, 18.4017309 ], [ -66.106734, 18.4017308 ], [ -66.1067349, 18.4017301 ], [ -66.1069386, 18.4015883 ], [ -66.107019, 18.40142 ], [ -66.1070317, 18.4013934 ], [ -66.1070128, 18.4011448 ], [ -66.1069951, 18.4009371 ], [ -66.1069946, 18.4009312 ], [ -66.1070039, 18.4009156 ], [ -66.1071435, 18.4006818 ], [ -66.1072377, 18.4005468 ], [ -66.107255, 18.4005221 ], [ -66.107401, 18.4003828 ], [ -66.1074064, 18.4003776 ], [ -66.1074394, 18.4003429 ], [ -66.1074487, 18.4003286 ], [ -66.1074623, 18.4003007 ], [ -66.1075051, 18.400213 ], [ -66.1075358, 18.4001499 ], [ -66.1075484, 18.4001143 ], [ -66.107574, 18.4000436 ], [ -66.1075858, 18.4000208 ], [ -66.1076268, 18.3999183 ], [ -66.1077755, 18.3997197 ], [ -66.107813, 18.3996695 ], [ -66.1081481, 18.3992243 ], [ -66.1082209, 18.3991548 ], [ -66.1083343, 18.3990466 ], [ -66.1085016, 18.3988697 ] ] ] } },
{ "type": "Feature", "properties": { "study_area_label": "Mora, Isabela", "municipality_name": "Isabela" }, "geometry": { "type": "Polygon", "coordinates": [ [ [ -67.032184, 18.467872 ], [ -67.0317367, 18.4680288 ], [ -67.0310727, 18.4681936 ], [ -67.0304383, 18.4683541 ], [ -67.0298514, 18.4685005 ], [ -67.0293945, 18.46862 ], [ -67.0290965, 18.4687027 ], [ -67.0287791, 18.4687762 ], [ -67.0284036, 18.4688084 ], [ -67.0281246, 18.4688394 ], [ -67.0278651, 18.4689225 ], [ -67.0272063, 18.4691472 ], [ -67.026624, 18.4693579 ], [ -67.0265084, 18.4693991 ], [ -67.0263274, 18.4694637 ], [ -67.0261424, 18.4695297 ], [ -67.026018, 18.4695741 ], [ -67.0255467, 18.4697566 ], [ -67.0249985, 18.4699869 ], [ -67.024306, 18.4702665 ], [ -67.0239982, 18.4703808 ], [ -67.0234355, 18.4705827 ], [ -67.0228151, 18.4708167 ], [ -67.0222573, 18.4710097 ], [ -67.0217329, 18.4711793 ], [ -67.021194, 18.4713712 ], [ -67.0206445, 18.4715476 ], [ -67.0203525, 18.4716414 ], [ -67.0196505, 18.4718667 ], [ -67.0190156, 18.4720735 ], [ -67.0184385, 18.472247 ], [ -67.0179765, 18.4723845 ], [ -67.01765, 18.4724815 ], [ -67.0174359, 18.4725409 ], [ -67.0172891, 18.4725816 ], [ -67.0172237, 18.4725906 ], [ -67.0169234, 18.472632 ], [ -67.0166058, 18.4726694 ], [ -67.0162214, 18.4727004 ], [ -67.0157788, 18.4727047 ], [ -67.0154084, 18.4727009 ], [ -67.0149613, 18.472677 ], [ -67.0146203, 18.4726404 ], [ -67.0145766, 18.4726358 ], [ -67.0142518, 18.4725597 ], [ -67.0141677, 18.47254 ], [ -67.0137448, 18.4724204 ], [ -67.0134082, 18.4723141 ], [ -67.0131822, 18.4722553 ], [ -67.0129124, 18.4721994 ], [ -67.0126195, 18.4721489 ], [ -67.0123114, 18.4720846 ], [ -67.0119416, 18.47203 ], [ -67.0114602, 18.4719515 ], [ -67.0110181, 18.4719096 ], [ -67.0104071, 18.4718457 ], [ -67.009787, 18.4718357 ], [ -67.0090033, 18.4718128 ], [ -67.0085175, 18.4718077 ], [ -67.0079688, 18.4718765 ], [ -67.0076802, 18.4719186 ], [ -67.0073677, 18.4719775 ], [ -67.007142, 18.4720011 ], [ -67.007142, 18.4720421 ], [ -67.0071418, 18.472271 ], [ -67.0071558, 18.4726517 ], [ -67.0071659, 18.47296 ], [ -67.0071941, 18.473639 ], [ -67.0072084, 18.4741439 ], [ -67.0071557, 18.4745059 ], [ -67.0071362, 18.4747123 ], [ -67.0070928, 18.4749885 ], [ -67.0070339, 18.4754318 ], [ -67.0069722, 18.4758963 ], [ -67.0068179, 18.4771222 ], [ -67.0066539, 18.4783106 ], [ -67.0065693, 18.4789522 ], [ -67.0065217, 18.4793132 ], [ -67.006519, 18.4793334 ], [ -67.0065285, 18.4795853 ], [ -67.0065334, 18.4798846 ], [ -67.006451, 18.4801458 ], [ -67.006384, 18.4804161 ], [ -67.0063887, 18.4806781 ], [ -67.0064221, 18.4808614 ], [ -67.0064939, 18.481403 ], [ -67.0065757, 18.4819075 ], [ -67.0066139, 18.482293 ], [ -67.0065994, 18.4825187 ], [ -67.0065948, 18.4828665 ], [ -67.0065801, 18.4832198 ], [ -67.0065607, 18.4835188 ], [ -67.0065702, 18.4837165 ], [ -67.0065987, 18.4839641 ], [ -67.0066134, 18.4843358 ], [ -67.0066418, 18.484799 ], [ -67.0066707, 18.4851156 ], [ -67.0067045, 18.4855743 ], [ -67.0067329, 18.4859834 ], [ -67.0068097, 18.4865014 ], [ -67.0068482, 18.486809 ], [ -67.0068961, 18.4870703 ], [ -67.0068993, 18.4871008 ], [ -67.0069201, 18.4872999 ], [ -67.0069188, 18.4873558 ], [ -67.0069153, 18.4875064 ], [ -67.006872, 18.4879284 ], [ -67.0068379, 18.488112 ], [ -67.006758, 18.4884086 ], [ -67.0067514, 18.488433 ], [ -67.0067388, 18.4885202 ], [ -67.0067076, 18.4887362 ], [ -67.0066744, 18.4889516 ], [ -67.0066355, 18.4891861 ], [ -67.006612, 18.4894162 ], [ -67.0066069, 18.4894658 ], [ -67.0065988, 18.4895153 ], [ -67.0065763, 18.4896523 ], [ -67.0065624, 18.4897366 ], [ -67.0065293, 18.4899382 ], [ -67.0064572, 18.4903924 ], [ -67.0063703, 18.4909437 ], [ -67.0062837, 18.4914205 ], [ -67.0061682, 18.4920449 ], [ -67.0062313, 18.4920783 ], [ -67.0067405, 18.4923479 ], [ -67.0076636, 18.4928161 ], [ -67.0085436, 18.4932747 ], [ -67.0097121, 18.4939182 ], [ -67.0103986, 18.4942835 ], [ -67.0104928, 18.4943341 ], [ -67.0126364, 18.4943046 ], [ -67.0150891, 18.4942772 ], [ -67.0150944, 18.4942771 ], [ -67.0158587, 18.4942734 ], [ -67.0168497, 18.4942685 ], [ -67.0174556, 18.4942737 ], [ -67.0174573, 18.4942739 ], [ -67.0177251, 18.4943059 ], [ -67.0179463, 18.494315 ], [ -67.0182011, 18.4943379 ], [ -67.0184173, 18.4943753 ], [ -67.0186724, 18.4943745 ], [ -67.0187211, 18.4943767 ], [ -67.01899, 18.4943891 ], [ -67.0192351, 18.4943804 ], [ -67.0196201, 18.4943482 ], [ -67.0199134, 18.4943152 ], [ -67.0201971, 18.4942933 ], [ -67.0204615, 18.494252 ], [ -67.0208947, 18.4942012 ], [ -67.0211013, 18.4941966 ], [ -67.0213227, 18.4941876 ], [ -67.0216787, 18.4942105 ], [ -67.0219093, 18.4942242 ], [ -67.0221931, 18.494252 ], [ -67.0226312, 18.4942848 ], [ -67.0230876, 18.4943257 ], [ -67.023463, 18.4943624 ], [ -67.0237182, 18.4943989 ], [ -67.0239249, 18.4944406 ], [ -67.0245786, 18.4945603 ], [ -67.0249922, 18.4946617 ], [ -67.0252956, 18.4947349 ], [ -67.0257525, 18.4948402 ], [ -67.0260025, 18.4949139 ], [ -67.0265797, 18.4950566 ], [ -67.0272337, 18.4952079 ], [ -67.0272816, 18.4948402 ], [ -67.0273106, 18.4944826 ], [ -67.0273399, 18.4941983 ], [ -67.0273733, 18.493808 ], [ -67.0273878, 18.4935743 ], [ -67.0274214, 18.4933771 ], [ -67.0274748, 18.4931067 ], [ -67.0275708, 18.4926796 ], [ -67.0276622, 18.4921928 ], [ -67.0277875, 18.4915323 ], [ -67.0279369, 18.4907243 ], [ -67.0281247, 18.4897246 ], [ -67.0281465, 18.4895981 ], [ -67.0282451, 18.4890268 ], [ -67.0282733, 18.4888853 ], [ -67.0283266, 18.4886173 ], [ -67.0283441, 18.4885294 ], [ -67.0283799, 18.4883495 ], [ -67.0283955, 18.4882711 ], [ -67.0285584, 18.4874526 ], [ -67.0286494, 18.4869939 ], [ -67.0287075, 18.4867189 ], [ -67.0287649, 18.4864113 ], [ -67.0288276, 18.4861082 ], [ -67.0289291, 18.4856124 ], [ -67.0290252, 18.485016 ], [ -67.0291072, 18.4844748 ], [ -67.0291936, 18.4840026 ], [ -67.029271, 18.4835426 ], [ -67.0293526, 18.4830884 ], [ -67.0294923, 18.4824101 ], [ -67.0295262, 18.4821846 ], [ -67.0295884, 18.4818679 ], [ -67.0296896, 18.481345 ], [ -67.0298247, 18.480661 ], [ -67.02995, 18.4800965 ], [ -67.0300557, 18.4796018 ], [ -67.0300798, 18.4794794 ], [ -67.0301517, 18.479115 ], [ -67.0302239, 18.478803 ], [ -67.0302726, 18.4784816 ], [ -67.0303348, 18.478165 ], [ -67.0304458, 18.4775089 ], [ -67.0306193, 18.4764583 ], [ -67.030701, 18.4759442 ], [ -67.0308163, 18.4753153 ], [ -67.0309322, 18.4746039 ], [ -67.0310188, 18.4742186 ], [ -67.0311918, 18.4732188 ], [ -67.0314086, 18.4720534 ], [ -67.0315821, 18.471057 ], [ -67.031757, 18.4701165 ], [ -67.0317844, 18.4699693 ], [ -67.0318712, 18.4694101 ], [ -67.031948, 18.4689559 ], [ -67.0320108, 18.4686934 ], [ -67.0320778, 18.4683587 ], [ -67.0321094, 18.4682018 ], [ -67.0321212, 18.4681435 ], [ -67.032184, 18.467872 ] ] ] } }
]
}
