{
"type": "FeatureCollection",
"name": "case_study_stac_footprints",
"crs": { "type": "name", "properties": { "name": "urn:ogc:def:crs:OGC:1.3:CRS84" } },
"features": [
{ "type": "Feature", "properties": { "source": "pr_naip", "item_id": "m_1806648_se_19_060_20221213", "collection_id": null, "acquired_at": "2022-12-13 00:00:00+00:00", "gsd": null, "visual_asset_href": "https://coastalimagery.blob.core.windows.net/digitalcoast/PR_NAIP_2021_9825/m_1806648_se_19_060_20221213.tif", "analytic_asset_href": null }, "geometry": { "type": "Polygon", "coordinates": [ [ [ -66.065465945984059, 18.247201477815153 ], [ -66.065465945984059, 18.315348865198352 ], [ -65.996973612804041, 18.315348865198352 ], [ -65.996973612804041, 18.247201477815153 ], [ -66.065465945984059, 18.247201477815153 ] ] ] } },
{ "type": "Feature", "properties": { "source": "pr_naip", "item_id": "pr_m_1806648_se_19_030_20221119_20230329", "collection_id": "naip", "acquired_at": "2022-11-19 16:00:00+00:00", "gsd": 0.3, "visual_asset_href": "https://naipeuwest.blob.core.windows.net/naip/v002/pr/2022/pr_030cm_2022/18066/48/m_1806648_se_19_030_20221119_20230329.tif?st=2026-05-21T07%3A15%3A30Z&se=2026-05-22T08%3A00%3A30Z&sp=rl&sv=2025-07-05&sr=c&skoid=9c8ff44a-6a2c-4dfb-b298-1c9212f64d9a&sktid=72f988bf-86f1-41af-91ab-2d7cd011db47&skt=2026-05-22T00%3A26%3A35Z&ske=2026-05-29T00%3A26%3A35Z&sks=b&skv=2025-07-05&sig=z5bKyWJyNkE79dg147uYBU7gMJ1UhVFAFGYTS0OoSSg%3D", "analytic_asset_href": "https://naipeuwest.blob.core.windows.net/naip/v002/pr/2022/pr_030cm_2022/18066/48/m_1806648_se_19_030_20221119_20230329.tif?st=2026-05-21T07%3A15%3A30Z&se=2026-05-22T08%3A00%3A30Z&sp=rl&sv=2025-07-05&sr=c&skoid=9c8ff44a-6a2c-4dfb-b298-1c9212f64d9a&sktid=72f988bf-86f1-41af-91ab-2d7cd011db47&skt=2026-05-22T00%3A26%3A35Z&ske=2026-05-29T00%3A26%3A35Z&sks=b&skv=2025-07-05&sig=z5bKyWJyNkE79dg147uYBU7gMJ1UhVFAFGYTS0OoSSg%3D" }, "geometry": { "type": "Polygon", "coordinates": [ [ [ -65.99723, 18.246285 ], [ -65.996043, 18.315154 ], [ -66.065274, 18.316232 ], [ -66.066433, 18.247359 ], [ -65.99723, 18.246285 ] ] ] } },
{ "type": "Feature", "properties": { "source": "pr_naip", "item_id": "pr_m_1806533_sw_20_030_20221024_20230329", "collection_id": "naip", "acquired_at": "2022-10-24 16:00:00+00:00", "gsd": 0.3, "visual_asset_href": "https://naipeuwest.blob.core.windows.net/naip/v002/pr/2022/pr_030cm_2022/18065/33/m_1806533_sw_20_030_20221024_20230329.tif?st=2026-05-21T07%3A15%3A30Z&se=2026-05-22T08%3A00%3A30Z&sp=rl&sv=2025-07-05&sr=c&skoid=9c8ff44a-6a2c-4dfb-b298-1c9212f64d9a&sktid=72f988bf-86f1-41af-91ab-2d7cd011db47&skt=2026-05-22T00%3A26%3A35Z&ske=2026-05-29T00%3A26%3A35Z&sks=b&skv=2025-07-05&sig=z5bKyWJyNkE79dg147uYBU7gMJ1UhVFAFGYTS0OoSSg%3D", "analytic_asset_href": "https://naipeuwest.blob.core.windows.net/naip/v002/pr/2022/pr_030cm_2022/18065/33/m_1806533_sw_20_030_20221024_20230329.tif?st=2026-05-21T07%3A15%3A30Z&se=2026-05-22T08%3A00%3A30Z&sp=rl&sv=2025-07-05&sr=c&skoid=9c8ff44a-6a2c-4dfb-b298-1c9212f64d9a&sktid=72f988bf-86f1-41af-91ab-2d7cd011db47&skt=2026-05-22T00%3A26%3A35Z&ske=2026-05-29T00%3A26%3A35Z&sks=b&skv=2025-07-05&sig=z5bKyWJyNkE79dg147uYBU7gMJ1UhVFAFGYTS0OoSSg%3D" }, "geometry": { "type": "Polygon", "coordinates": [ [ [ -65.933556, 18.372359 ], [ -65.934724, 18.441238 ], [ -66.003968, 18.440153 ], [ -66.002773, 18.371279 ], [ -65.933556, 18.372359 ] ] ] } },
{ "type": "Feature", "properties": { "source": "pr_naip", "item_id": "pr_m_1806639_ne_19_030_20221024_20230329", "collection_id": "naip", "acquired_at": "2022-10-24 16:00:00+00:00", "gsd": 0.3, "visual_asset_href": "https://naipeuwest.blob.core.windows.net/naip/v002/pr/2022/pr_030cm_2022/18066/39/m_1806639_ne_19_030_20221024_20230329.tif?st=2026-05-21T07%3A15%3A30Z&se=2026-05-22T08%3A00%3A30Z&sp=rl&sv=2025-07-05&sr=c&skoid=9c8ff44a-6a2c-4dfb-b298-1c9212f64d9a&sktid=72f988bf-86f1-41af-91ab-2d7cd011db47&skt=2026-05-22T00%3A26%3A35Z&ske=2026-05-29T00%3A26%3A35Z&sks=b&skv=2025-07-05&sig=z5bKyWJyNkE79dg147uYBU7gMJ1UhVFAFGYTS0OoSSg%3D", "analytic_asset_href": "https://naipeuwest.blob.core.windows.net/naip/v002/pr/2022/pr_030cm_2022/18066/39/m_1806639_ne_19_030_20221024_20230329.tif?st=2026-05-21T07%3A15%3A30Z&se=2026-05-22T08%3A00%3A30Z&sp=rl&sv=2025-07-05&sr=c&skoid=9c8ff44a-6a2c-4dfb-b298-1c9212f64d9a&sktid=72f988bf-86f1-41af-91ab-2d7cd011db47&skt=2026-05-22T00%3A26%3A35Z&ske=2026-05-29T00%3A26%3A35Z&sks=b&skv=2025-07-05&sig=z5bKyWJyNkE79dg147uYBU7gMJ1UhVFAFGYTS0OoSSg%3D" }, "geometry": { "type": "Polygon", "coordinates": [ [ [ -66.122224, 18.433819 ], [ -66.121075, 18.502657 ], [ -66.190281, 18.503698 ], [ -66.191403, 18.434856 ], [ -66.122224, 18.433819 ] ] ] } },
{ "type": "Feature", "properties": { "source": "pr_naip", "item_id": "pr_m_1806640_ne_19_030_20221024_20230329", "collection_id": "naip", "acquired_at": "2022-10-24 16:00:00+00:00", "gsd": 0.3, "visual_asset_href": "https://naipeuwest.blob.core.windows.net/naip/v002/pr/2022/pr_030cm_2022/18066/40/m_1806640_ne_19_030_20221024_20230329.tif?st=2026-05-21T07%3A15%3A30Z&se=2026-05-22T08%3A00%3A30Z&sp=rl&sv=2025-07-05&sr=c&skoid=9c8ff44a-6a2c-4dfb-b298-1c9212f64d9a&sktid=72f988bf-86f1-41af-91ab-2d7cd011db47&skt=2026-05-22T00%3A26%3A35Z&ske=2026-05-29T00%3A26%3A35Z&sks=b&skv=2025-07-05&sig=z5bKyWJyNkE79dg147uYBU7gMJ1UhVFAFGYTS0OoSSg%3D", "analytic_asset_href": "https://naipeuwest.blob.core.windows.net/naip/v002/pr/2022/pr_030cm_2022/18066/40/m_1806640_ne_19_030_20221024_20230329.tif?st=2026-05-21T07%3A15%3A30Z&se=2026-05-22T08%3A00%3A30Z&sp=rl&sv=2025-07-05&sr=c&skoid=9c8ff44a-6a2c-4dfb-b298-1c9212f64d9a&sktid=72f988bf-86f1-41af-91ab-2d7cd011db47&skt=2026-05-22T00%3A26%3A35Z&ske=2026-05-29T00%3A26%3A35Z&sks=b&skv=2025-07-05&sig=z5bKyWJyNkE79dg147uYBU7gMJ1UhVFAFGYTS0OoSSg%3D" }, "geometry": { "type": "Polygon", "coordinates": [ [ [ -65.997225, 18.433777 ], [ -65.996025, 18.502654 ], [ -66.065275, 18.503741 ], [ -66.066447, 18.434861 ], [ -65.997225, 18.433777 ] ] ] } },
{ "type": "Feature", "properties": { "source": "pr_naip", "item_id": "pr_m_1806640_nw_19_030_20221024_20230329", "collection_id": "naip", "acquired_at": "2022-10-24 16:00:00+00:00", "gsd": 0.3, "visual_asset_href": "https://naipeuwest.blob.core.windows.net/naip/v002/pr/2022/pr_030cm_2022/18066/40/m_1806640_nw_19_030_20221024_20230329.tif?st=2026-05-21T07%3A15%3A30Z&se=2026-05-22T08%3A00%3A30Z&sp=rl&sv=2025-07-05&sr=c&skoid=9c8ff44a-6a2c-4dfb-b298-1c9212f64d9a&sktid=72f988bf-86f1-41af-91ab-2d7cd011db47&skt=2026-05-22T00%3A26%3A35Z&ske=2026-05-29T00%3A26%3A35Z&sks=b&skv=2025-07-05&sig=z5bKyWJyNkE79dg147uYBU7gMJ1UhVFAFGYTS0OoSSg%3D", "analytic_asset_href": "https://naipeuwest.blob.core.windows.net/naip/v002/pr/2022/pr_030cm_2022/18066/40/m_1806640_nw_19_030_20221024_20230329.tif?st=2026-05-21T07%3A15%3A30Z&se=2026-05-22T08%3A00%3A30Z&sp=rl&sv=2025-07-05&sr=c&skoid=9c8ff44a-6a2c-4dfb-b298-1c9212f64d9a&sktid=72f988bf-86f1-41af-91ab-2d7cd011db47&skt=2026-05-22T00%3A26%3A35Z&ske=2026-05-29T00%3A26%3A35Z&sks=b&skv=2025-07-05&sig=z5bKyWJyNkE79dg147uYBU7gMJ1UhVFAFGYTS0OoSSg%3D" }, "geometry": { "type": "Polygon", "coordinates": [ [ [ -66.059725, 18.433798 ], [ -66.05855, 18.502654 ], [ -66.127778, 18.503718 ], [ -66.128925, 18.434858 ], [ -66.059725, 18.433798 ] ] ] } },
{ "type": "Feature", "properties": { "source": "pr_naip", "item_id": "pr_m_1806640_se_19_030_20221024_20230329", "collection_id": "naip", "acquired_at": "2022-10-24 16:00:00+00:00", "gsd": 0.3, "visual_asset_href": "https://naipeuwest.blob.core.windows.net/naip/v002/pr/2022/pr_030cm_2022/18066/40/m_1806640_se_19_030_20221024_20230329.tif?st=2026-05-21T07%3A15%3A30Z&se=2026-05-22T08%3A00%3A30Z&sp=rl&sv=2025-07-05&sr=c&skoid=9c8ff44a-6a2c-4dfb-b298-1c9212f64d9a&sktid=72f988bf-86f1-41af-91ab-2d7cd011db47&skt=2026-05-22T00%3A26%3A35Z&ske=2026-05-29T00%3A26%3A35Z&sks=b&skv=2025-07-05&sig=z5bKyWJyNkE79dg147uYBU7gMJ1UhVFAFGYTS0OoSSg%3D", "analytic_asset_href": "https://naipeuwest.blob.core.windows.net/naip/v002/pr/2022/pr_030cm_2022/18066/40/m_1806640_se_19_030_20221024_20230329.tif?st=2026-05-21T07%3A15%3A30Z&se=2026-05-22T08%3A00%3A30Z&sp=rl&sv=2025-07-05&sr=c&skoid=9c8ff44a-6a2c-4dfb-b298-1c9212f64d9a&sktid=72f988bf-86f1-41af-91ab-2d7cd011db47&skt=2026-05-22T00%3A26%3A35Z&ske=2026-05-29T00%3A26%3A35Z&sks=b&skv=2025-07-05&sig=z5bKyWJyNkE79dg147uYBU7gMJ1UhVFAFGYTS0OoSSg%3D" }, "geometry": { "type": "Polygon", "coordinates": [ [ [ -65.997228, 18.371279 ], [ -65.996033, 18.440153 ], [ -66.065274, 18.441238 ], [ -66.066442, 18.372359 ], [ -65.997228, 18.371279 ] ] ] } },
{ "type": "Feature", "properties": { "source": "pr_naip", "item_id": "pr_m_1806640_sw_19_030_20221024_20230329", "collection_id": "naip", "acquired_at": "2022-10-24 16:00:00+00:00", "gsd": 0.3, "visual_asset_href": "https://naipeuwest.blob.core.windows.net/naip/v002/pr/2022/pr_030cm_2022/18066/40/m_1806640_sw_19_030_20221024_20230329.tif?st=2026-05-21T07%3A15%3A30Z&se=2026-05-22T08%3A00%3A30Z&sp=rl&sv=2025-07-05&sr=c&skoid=9c8ff44a-6a2c-4dfb-b298-1c9212f64d9a&sktid=72f988bf-86f1-41af-91ab-2d7cd011db47&skt=2026-05-22T00%3A26%3A35Z&ske=2026-05-29T00%3A26%3A35Z&sks=b&skv=2025-07-05&sig=z5bKyWJyNkE79dg147uYBU7gMJ1UhVFAFGYTS0OoSSg%3D", "analytic_asset_href": "https://naipeuwest.blob.core.windows.net/naip/v002/pr/2022/pr_030cm_2022/18066/40/m_1806640_sw_19_030_20221024_20230329.tif?st=2026-05-21T07%3A15%3A30Z&se=2026-05-22T08%3A00%3A30Z&sp=rl&sv=2025-07-05&sr=c&skoid=9c8ff44a-6a2c-4dfb-b298-1c9212f64d9a&sktid=72f988bf-86f1-41af-91ab-2d7cd011db47&skt=2026-05-22T00%3A26%3A35Z&ske=2026-05-29T00%3A26%3A35Z&sks=b&skv=2025-07-05&sig=z5bKyWJyNkE79dg147uYBU7gMJ1UhVFAFGYTS0OoSSg%3D" }, "geometry": { "type": "Polygon", "coordinates": [ [ [ -66.059725, 18.371302 ], [ -66.058555, 18.440156 ], [ -66.127777, 18.441217 ], [ -66.12892, 18.372359 ], [ -66.059725, 18.371302 ] ] ] } },
{ "type": "Feature", "properties": { "source": "pr_naip", "item_id": "pr_m_1806648_sw_19_030_20221021_20230329", "collection_id": "naip", "acquired_at": "2022-10-21 16:00:00+00:00", "gsd": 0.3, "visual_asset_href": "https://naipeuwest.blob.core.windows.net/naip/v002/pr/2022/pr_030cm_2022/18066/48/m_1806648_sw_19_030_20221021_20230329.tif?st=2026-05-21T07%3A15%3A30Z&se=2026-05-22T08%3A00%3A30Z&sp=rl&sv=2025-07-05&sr=c&skoid=9c8ff44a-6a2c-4dfb-b298-1c9212f64d9a&sktid=72f988bf-86f1-41af-91ab-2d7cd011db47&skt=2026-05-22T00%3A26%3A35Z&ske=2026-05-29T00%3A26%3A35Z&sks=b&skv=2025-07-05&sig=z5bKyWJyNkE79dg147uYBU7gMJ1UhVFAFGYTS0OoSSg%3D", "analytic_asset_href": "https://naipeuwest.blob.core.windows.net/naip/v002/pr/2022/pr_030cm_2022/18066/48/m_1806648_sw_19_030_20221021_20230329.tif?st=2026-05-21T07%3A15%3A30Z&se=2026-05-22T08%3A00%3A30Z&sp=rl&sv=2025-07-05&sr=c&skoid=9c8ff44a-6a2c-4dfb-b298-1c9212f64d9a&sktid=72f988bf-86f1-41af-91ab-2d7cd011db47&skt=2026-05-22T00%3A26%3A35Z&ske=2026-05-29T00%3A26%3A35Z&sks=b&skv=2025-07-05&sig=z5bKyWJyNkE79dg147uYBU7gMJ1UhVFAFGYTS0OoSSg%3D" }, "geometry": { "type": "Polygon", "coordinates": [ [ [ -66.059727, 18.246308 ], [ -66.058565, 18.315156 ], [ -66.127775, 18.316211 ], [ -66.128909, 18.247358 ], [ -66.059727, 18.246308 ] ] ] } },
{ "type": "Feature", "properties": { "source": "pr_naip", "item_id": "pr_m_1806648_ne_19_030_20221020_20230329", "collection_id": "naip", "acquired_at": "2022-10-20 16:00:00+00:00", "gsd": 0.3, "visual_asset_href": "https://naipeuwest.blob.core.windows.net/naip/v002/pr/2022/pr_030cm_2022/18066/48/m_1806648_ne_19_030_20221020_20230329.tif?st=2026-05-21T07%3A15%3A30Z&se=2026-05-22T08%3A00%3A30Z&sp=rl&sv=2025-07-05&sr=c&skoid=9c8ff44a-6a2c-4dfb-b298-1c9212f64d9a&sktid=72f988bf-86f1-41af-91ab-2d7cd011db47&skt=2026-05-22T00%3A26%3A35Z&ske=2026-05-29T00%3A26%3A35Z&sks=b&skv=2025-07-05&sig=z5bKyWJyNkE79dg147uYBU7gMJ1UhVFAFGYTS0OoSSg%3D", "analytic_asset_href": "https://naipeuwest.blob.core.windows.net/naip/v002/pr/2022/pr_030cm_2022/18066/48/m_1806648_ne_19_030_20221020_20230329.tif?st=2026-05-21T07%3A15%3A30Z&se=2026-05-22T08%3A00%3A30Z&sp=rl&sv=2025-07-05&sr=c&skoid=9c8ff44a-6a2c-4dfb-b298-1c9212f64d9a&sktid=72f988bf-86f1-41af-91ab-2d7cd011db47&skt=2026-05-22T00%3A26%3A35Z&ske=2026-05-29T00%3A26%3A35Z&sks=b&skv=2025-07-05&sig=z5bKyWJyNkE79dg147uYBU7gMJ1UhVFAFGYTS0OoSSg%3D" }, "geometry": { "type": "Polygon", "coordinates": [ [ [ -65.997228, 18.308784 ], [ -65.996037, 18.377653 ], [ -66.065273, 18.378734 ], [ -66.066436, 18.30986 ], [ -65.997228, 18.308784 ] ] ] } },
{ "type": "Feature", "properties": { "source": "pr_naip", "item_id": "pr_m_1806648_nw_19_030_20221020_20230329", "collection_id": "naip", "acquired_at": "2022-10-20 16:00:00+00:00", "gsd": 0.3, "visual_asset_href": "https://naipeuwest.blob.core.windows.net/naip/v002/pr/2022/pr_030cm_2022/18066/48/m_1806648_nw_19_030_20221020_20230329.tif?st=2026-05-21T07%3A15%3A30Z&se=2026-05-22T08%3A00%3A30Z&sp=rl&sv=2025-07-05&sr=c&skoid=9c8ff44a-6a2c-4dfb-b298-1c9212f64d9a&sktid=72f988bf-86f1-41af-91ab-2d7cd011db47&skt=2026-05-22T00%3A26%3A35Z&ske=2026-05-29T00%3A26%3A35Z&sks=b&skv=2025-07-05&sig=z5bKyWJyNkE79dg147uYBU7gMJ1UhVFAFGYTS0OoSSg%3D", "analytic_asset_href": "https://naipeuwest.blob.core.windows.net/naip/v002/pr/2022/pr_030cm_2022/18066/48/m_1806648_nw_19_030_20221020_20230329.tif?st=2026-05-21T07%3A15%3A30Z&se=2026-05-22T08%3A00%3A30Z&sp=rl&sv=2025-07-05&sr=c&skoid=9c8ff44a-6a2c-4dfb-b298-1c9212f64d9a&sktid=72f988bf-86f1-41af-91ab-2d7cd011db47&skt=2026-05-22T00%3A26%3A35Z&ske=2026-05-29T00%3A26%3A35Z&sks=b&skv=2025-07-05&sig=z5bKyWJyNkE79dg147uYBU7gMJ1UhVFAFGYTS0OoSSg%3D" }, "geometry": { "type": "Polygon", "coordinates": [ [ [ -66.059728, 18.308804 ], [ -66.058562, 18.377655 ], [ -66.127776, 18.378713 ], [ -66.128915, 18.309857 ], [ -66.059728, 18.308804 ] ] ] } },
{ "type": "Feature", "properties": { "source": "pr_naip", "item_id": "pr_m_1806633_se_19_030_20221016_20230329", "collection_id": "naip", "acquired_at": "2022-10-16 16:00:00+00:00", "gsd": 0.3, "visual_asset_href": "https://naipeuwest.blob.core.windows.net/naip/v002/pr/2022/pr_030cm_2022/18066/33/m_1806633_se_19_030_20221016_20230329.tif?st=2026-05-21T07%3A15%3A30Z&se=2026-05-22T08%3A00%3A30Z&sp=rl&sv=2025-07-05&sr=c&skoid=9c8ff44a-6a2c-4dfb-b298-1c9212f64d9a&sktid=72f988bf-86f1-41af-91ab-2d7cd011db47&skt=2026-05-22T00%3A26%3A35Z&ske=2026-05-29T00%3A26%3A35Z&sks=b&skv=2025-07-05&sig=z5bKyWJyNkE79dg147uYBU7gMJ1UhVFAFGYTS0OoSSg%3D", "analytic_asset_href": "https://naipeuwest.blob.core.windows.net/naip/v002/pr/2022/pr_030cm_2022/18066/33/m_1806633_se_19_030_20221016_20230329.tif?st=2026-05-21T07%3A15%3A30Z&se=2026-05-22T08%3A00%3A30Z&sp=rl&sv=2025-07-05&sr=c&skoid=9c8ff44a-6a2c-4dfb-b298-1c9212f64d9a&sktid=72f988bf-86f1-41af-91ab-2d7cd011db47&skt=2026-05-22T00%3A26%3A35Z&ske=2026-05-29T00%3A26%3A35Z&sks=b&skv=2025-07-05&sig=z5bKyWJyNkE79dg147uYBU7gMJ1UhVFAFGYTS0OoSSg%3D" }, "geometry": { "type": "Polygon", "coordinates": [ [ [ -66.872205, 18.371579 ], [ -66.871361, 18.440177 ], [ -66.940297, 18.440938 ], [ -66.941113, 18.372337 ], [ -66.872205, 18.371579 ] ] ] } },
{ "type": "Feature", "properties": { "source": "pr_naip", "item_id": "pr_m_1806625_sw_19_030_20221014_20230329", "collection_id": "naip", "acquired_at": "2022-10-14 16:00:00+00:00", "gsd": 0.3, "visual_asset_href": "https://naipeuwest.blob.core.windows.net/naip/v002/pr/2022/pr_030cm_2022/18066/25/m_1806625_sw_19_030_20221014_20230329.tif?st=2026-05-21T07%3A15%3A30Z&se=2026-05-22T08%3A00%3A30Z&sp=rl&sv=2025-07-05&sr=c&skoid=9c8ff44a-6a2c-4dfb-b298-1c9212f64d9a&sktid=72f988bf-86f1-41af-91ab-2d7cd011db47&skt=2026-05-22T00%3A26%3A35Z&ske=2026-05-29T00%3A26%3A35Z&sks=b&skv=2025-07-05&sig=z5bKyWJyNkE79dg147uYBU7gMJ1UhVFAFGYTS0OoSSg%3D", "analytic_asset_href": "https://naipeuwest.blob.core.windows.net/naip/v002/pr/2022/pr_030cm_2022/18066/25/m_1806625_sw_19_030_20221014_20230329.tif?st=2026-05-21T07%3A15%3A30Z&se=2026-05-22T08%3A00%3A30Z&sp=rl&sv=2025-07-05&sr=c&skoid=9c8ff44a-6a2c-4dfb-b298-1c9212f64d9a&sktid=72f988bf-86f1-41af-91ab-2d7cd011db47&skt=2026-05-22T00%3A26%3A35Z&ske=2026-05-29T00%3A26%3A35Z&sks=b&skv=2025-07-05&sig=z5bKyWJyNkE79dg147uYBU7gMJ1UhVFAFGYTS0OoSSg%3D" }, "geometry": { "type": "Polygon", "coordinates": [ [ [ -66.934699, 18.496596 ], [ -66.933875, 18.565178 ], [ -67.002801, 18.56592 ], [ -67.003598, 18.497336 ], [ -66.934699, 18.496596 ] ] ] } },
{ "type": "Feature", "properties": { "source": "pr_naip", "item_id": "pr_m_1806633_nw_19_030_20221014_20230329", "collection_id": "naip", "acquired_at": "2022-10-14 16:00:00+00:00", "gsd": 0.3, "visual_asset_href": "https://naipeuwest.blob.core.windows.net/naip/v002/pr/2022/pr_030cm_2022/18066/33/m_1806633_nw_19_030_20221014_20230329.tif?st=2026-05-21T07%3A15%3A30Z&se=2026-05-22T08%3A00%3A30Z&sp=rl&sv=2025-07-05&sr=c&skoid=9c8ff44a-6a2c-4dfb-b298-1c9212f64d9a&sktid=72f988bf-86f1-41af-91ab-2d7cd011db47&skt=2026-05-22T00%3A26%3A35Z&ske=2026-05-29T00%3A26%3A35Z&sks=b&skv=2025-07-05&sig=z5bKyWJyNkE79dg147uYBU7gMJ1UhVFAFGYTS0OoSSg%3D", "analytic_asset_href": "https://naipeuwest.blob.core.windows.net/naip/v002/pr/2022/pr_030cm_2022/18066/33/m_1806633_nw_19_030_20221014_20230329.tif?st=2026-05-21T07%3A15%3A30Z&se=2026-05-22T08%3A00%3A30Z&sp=rl&sv=2025-07-05&sr=c&skoid=9c8ff44a-6a2c-4dfb-b298-1c9212f64d9a&sktid=72f988bf-86f1-41af-91ab-2d7cd011db47&skt=2026-05-22T00%3A26%3A35Z&ske=2026-05-29T00%3A26%3A35Z&sks=b&skv=2025-07-05&sig=z5bKyWJyNkE79dg147uYBU7gMJ1UhVFAFGYTS0OoSSg%3D" }, "geometry": { "type": "Polygon", "coordinates": [ [ [ -66.9347, 18.4341 ], [ -66.933879, 18.502679 ], [ -67.0028, 18.503419 ], [ -67.003594, 18.434837 ], [ -66.9347, 18.4341 ] ] ] } },
{ "type": "Feature", "properties": { "source": "pr_naip", "item_id": "pr_m_1806633_sw_19_030_20221014_20230329", "collection_id": "naip", "acquired_at": "2022-10-14 16:00:00+00:00", "gsd": 0.3, "visual_asset_href": "https://naipeuwest.blob.core.windows.net/naip/v002/pr/2022/pr_030cm_2022/18066/33/m_1806633_sw_19_030_20221014_20230329.tif?st=2026-05-21T07%3A15%3A30Z&se=2026-05-22T08%3A00%3A30Z&sp=rl&sv=2025-07-05&sr=c&skoid=9c8ff44a-6a2c-4dfb-b298-1c9212f64d9a&sktid=72f988bf-86f1-41af-91ab-2d7cd011db47&skt=2026-05-22T00%3A26%3A35Z&ske=2026-05-29T00%3A26%3A35Z&sks=b&skv=2025-07-05&sig=z5bKyWJyNkE79dg147uYBU7gMJ1UhVFAFGYTS0OoSSg%3D", "analytic_asset_href": "https://naipeuwest.blob.core.windows.net/naip/v002/pr/2022/pr_030cm_2022/18066/33/m_1806633_sw_19_030_20221014_20230329.tif?st=2026-05-21T07%3A15%3A30Z&se=2026-05-22T08%3A00%3A30Z&sp=rl&sv=2025-07-05&sr=c&skoid=9c8ff44a-6a2c-4dfb-b298-1c9212f64d9a&sktid=72f988bf-86f1-41af-91ab-2d7cd011db47&skt=2026-05-22T00%3A26%3A35Z&ske=2026-05-29T00%3A26%3A35Z&sks=b&skv=2025-07-05&sig=z5bKyWJyNkE79dg147uYBU7gMJ1UhVFAFGYTS0OoSSg%3D" }, "geometry": { "type": "Polygon", "coordinates": [ [ [ -66.934702, 18.3716 ], [ -66.933883, 18.44018 ], [ -67.002799, 18.440918 ], [ -67.00359, 18.372335 ], [ -66.934702, 18.3716 ] ] ] } },
{ "type": "Feature", "properties": { "source": "pr_naip", "item_id": "pr_m_1806641_ne_19_030_20221014_20230329", "collection_id": "naip", "acquired_at": "2022-10-14 16:00:00+00:00", "gsd": 0.3, "visual_asset_href": "https://naipeuwest.blob.core.windows.net/naip/v002/pr/2022/pr_030cm_2022/18066/41/m_1806641_ne_19_030_20221014_20230329.tif?st=2026-05-21T07%3A15%3A30Z&se=2026-05-22T08%3A00%3A30Z&sp=rl&sv=2025-07-05&sr=c&skoid=9c8ff44a-6a2c-4dfb-b298-1c9212f64d9a&sktid=72f988bf-86f1-41af-91ab-2d7cd011db47&skt=2026-05-22T00%3A26%3A35Z&ske=2026-05-29T00%3A26%3A35Z&sks=b&skv=2025-07-05&sig=z5bKyWJyNkE79dg147uYBU7gMJ1UhVFAFGYTS0OoSSg%3D", "analytic_asset_href": "https://naipeuwest.blob.core.windows.net/naip/v002/pr/2022/pr_030cm_2022/18066/41/m_1806641_ne_19_030_20221014_20230329.tif?st=2026-05-21T07%3A15%3A30Z&se=2026-05-22T08%3A00%3A30Z&sp=rl&sv=2025-07-05&sr=c&skoid=9c8ff44a-6a2c-4dfb-b298-1c9212f64d9a&sktid=72f988bf-86f1-41af-91ab-2d7cd011db47&skt=2026-05-22T00%3A26%3A35Z&ske=2026-05-29T00%3A26%3A35Z&sks=b&skv=2025-07-05&sig=z5bKyWJyNkE79dg147uYBU7gMJ1UhVFAFGYTS0OoSSg%3D" }, "geometry": { "type": "Polygon", "coordinates": [ [ [ -66.872204, 18.309081 ], [ -66.871363, 18.377677 ], [ -66.940297, 18.378436 ], [ -66.94111, 18.309837 ], [ -66.872204, 18.309081 ] ] ] } },
{ "type": "Feature", "properties": { "source": "pr_naip", "item_id": "pr_m_1806641_nw_19_030_20221014_20230329", "collection_id": "naip", "acquired_at": "2022-10-14 16:00:00+00:00", "gsd": 0.3, "visual_asset_href": "https://naipeuwest.blob.core.windows.net/naip/v002/pr/2022/pr_030cm_2022/18066/41/m_1806641_nw_19_030_20221014_20230329.tif?st=2026-05-21T07%3A15%3A30Z&se=2026-05-22T08%3A00%3A30Z&sp=rl&sv=2025-07-05&sr=c&skoid=9c8ff44a-6a2c-4dfb-b298-1c9212f64d9a&sktid=72f988bf-86f1-41af-91ab-2d7cd011db47&skt=2026-05-22T00%3A26%3A35Z&ske=2026-05-29T00%3A26%3A35Z&sks=b&skv=2025-07-05&sig=z5bKyWJyNkE79dg147uYBU7gMJ1UhVFAFGYTS0OoSSg%3D", "analytic_asset_href": "https://naipeuwest.blob.core.windows.net/naip/v002/pr/2022/pr_030cm_2022/18066/41/m_1806641_nw_19_030_20221014_20230329.tif?st=2026-05-21T07%3A15%3A30Z&se=2026-05-22T08%3A00%3A30Z&sp=rl&sv=2025-07-05&sr=c&skoid=9c8ff44a-6a2c-4dfb-b298-1c9212f64d9a&sktid=72f988bf-86f1-41af-91ab-2d7cd011db47&skt=2026-05-22T00%3A26%3A35Z&ske=2026-05-29T00%3A26%3A35Z&sks=b&skv=2025-07-05&sig=z5bKyWJyNkE79dg147uYBU7gMJ1UhVFAFGYTS0OoSSg%3D" }, "geometry": { "type": "Polygon", "coordinates": [ [ [ -66.934704, 18.309103 ], [ -66.933888, 18.377678 ], [ -67.002799, 18.378414 ], [ -67.003587, 18.309836 ], [ -66.934704, 18.309103 ] ] ] } },
{ "type": "Feature", "properties": { "source": "pr_naip", "item_id": "pr_m_1806732_se_19_030_20221014_20230329", "collection_id": "naip", "acquired_at": "2022-10-14 16:00:00+00:00", "gsd": 0.3, "visual_asset_href": "https://naipeuwest.blob.core.windows.net/naip/v002/pr/2022/pr_030cm_2022/18067/32/m_1806732_se_19_030_20221014_20230329.tif?st=2026-05-21T07%3A15%3A30Z&se=2026-05-22T08%3A00%3A30Z&sp=rl&sv=2025-07-05&sr=c&skoid=9c8ff44a-6a2c-4dfb-b298-1c9212f64d9a&sktid=72f988bf-86f1-41af-91ab-2d7cd011db47&skt=2026-05-22T00%3A26%3A35Z&ske=2026-05-29T00%3A26%3A35Z&sks=b&skv=2025-07-05&sig=z5bKyWJyNkE79dg147uYBU7gMJ1UhVFAFGYTS0OoSSg%3D", "analytic_asset_href": "https://naipeuwest.blob.core.windows.net/naip/v002/pr/2022/pr_030cm_2022/18067/32/m_1806732_se_19_030_20221014_20230329.tif?st=2026-05-21T07%3A15%3A30Z&se=2026-05-22T08%3A00%3A30Z&sp=rl&sv=2025-07-05&sr=c&skoid=9c8ff44a-6a2c-4dfb-b298-1c9212f64d9a&sktid=72f988bf-86f1-41af-91ab-2d7cd011db47&skt=2026-05-22T00%3A26%3A35Z&ske=2026-05-29T00%3A26%3A35Z&sks=b&skv=2025-07-05&sig=z5bKyWJyNkE79dg147uYBU7gMJ1UhVFAFGYTS0OoSSg%3D" }, "geometry": { "type": "Polygon", "coordinates": [ [ [ -66.997198, 18.49662 ], [ -66.996399, 18.56518 ], [ -67.065302, 18.5659 ], [ -67.066074, 18.497337 ], [ -66.997198, 18.49662 ] ] ] } },
{ "type": "Feature", "properties": { "source": "pr_naip", "item_id": "pr_m_1806732_sw_19_030_20221014_20230329", "collection_id": "naip", "acquired_at": "2022-10-14 16:00:00+00:00", "gsd": 0.3, "visual_asset_href": "https://naipeuwest.blob.core.windows.net/naip/v002/pr/2022/pr_030cm_2022/18067/32/m_1806732_sw_19_030_20221014_20230329.tif?st=2026-05-21T07%3A15%3A30Z&se=2026-05-22T08%3A00%3A30Z&sp=rl&sv=2025-07-05&sr=c&skoid=9c8ff44a-6a2c-4dfb-b298-1c9212f64d9a&sktid=72f988bf-86f1-41af-91ab-2d7cd011db47&skt=2026-05-22T00%3A26%3A35Z&ske=2026-05-29T00%3A26%3A35Z&sks=b&skv=2025-07-05&sig=z5bKyWJyNkE79dg147uYBU7gMJ1UhVFAFGYTS0OoSSg%3D", "analytic_asset_href": "https://naipeuwest.blob.core.windows.net/naip/v002/pr/2022/pr_030cm_2022/18067/32/m_1806732_sw_19_030_20221014_20230329.tif?st=2026-05-21T07%3A15%3A30Z&se=2026-05-22T08%3A00%3A30Z&sp=rl&sv=2025-07-05&sr=c&skoid=9c8ff44a-6a2c-4dfb-b298-1c9212f64d9a&sktid=72f988bf-86f1-41af-91ab-2d7cd011db47&skt=2026-05-22T00%3A26%3A35Z&ske=2026-05-29T00%3A26%3A35Z&sks=b&skv=2025-07-05&sig=z5bKyWJyNkE79dg147uYBU7gMJ1UhVFAFGYTS0OoSSg%3D" }, "geometry": { "type": "Polygon", "coordinates": [ [ [ -67.059696, 18.49664 ], [ -67.058922, 18.565184 ], [ -67.127805, 18.56588 ], [ -67.128551, 18.497333 ], [ -67.059696, 18.49664 ] ] ] } },
{ "type": "Feature", "properties": { "source": "pr_naip", "item_id": "pr_m_1806740_ne_19_030_20221014_20230329", "collection_id": "naip", "acquired_at": "2022-10-14 16:00:00+00:00", "gsd": 0.3, "visual_asset_href": "https://naipeuwest.blob.core.windows.net/naip/v002/pr/2022/pr_030cm_2022/18067/40/m_1806740_ne_19_030_20221014_20230329.tif?st=2026-05-21T07%3A15%3A30Z&se=2026-05-22T08%3A00%3A30Z&sp=rl&sv=2025-07-05&sr=c&skoid=9c8ff44a-6a2c-4dfb-b298-1c9212f64d9a&sktid=72f988bf-86f1-41af-91ab-2d7cd011db47&skt=2026-05-22T00%3A26%3A35Z&ske=2026-05-29T00%3A26%3A35Z&sks=b&skv=2025-07-05&sig=z5bKyWJyNkE79dg147uYBU7gMJ1UhVFAFGYTS0OoSSg%3D", "analytic_asset_href": "https://naipeuwest.blob.core.windows.net/naip/v002/pr/2022/pr_030cm_2022/18067/40/m_1806740_ne_19_030_20221014_20230329.tif?st=2026-05-21T07%3A15%3A30Z&se=2026-05-22T08%3A00%3A30Z&sp=rl&sv=2025-07-05&sr=c&skoid=9c8ff44a-6a2c-4dfb-b298-1c9212f64d9a&sktid=72f988bf-86f1-41af-91ab-2d7cd011db47&skt=2026-05-22T00%3A26%3A35Z&ske=2026-05-29T00%3A26%3A35Z&sks=b&skv=2025-07-05&sig=z5bKyWJyNkE79dg147uYBU7gMJ1UhVFAFGYTS0OoSSg%3D" }, "geometry": { "type": "Polygon", "coordinates": [ [ [ -66.997199, 18.434122 ], [ -66.996403, 18.50268 ], [ -67.065301, 18.503397 ], [ -67.06607, 18.434836 ], [ -66.997199, 18.434122 ] ] ] } },
{ "type": "Feature", "properties": { "source": "pr_naip", "item_id": "pr_m_1806740_nw_19_030_20221014_20230329", "collection_id": "naip", "acquired_at": "2022-10-14 16:00:00+00:00", "gsd": 0.3, "visual_asset_href": "https://naipeuwest.blob.core.windows.net/naip/v002/pr/2022/pr_030cm_2022/18067/40/m_1806740_nw_19_030_20221014_20230329.tif?st=2026-05-21T07%3A15%3A30Z&se=2026-05-22T08%3A00%3A30Z&sp=rl&sv=2025-07-05&sr=c&skoid=9c8ff44a-6a2c-4dfb-b298-1c9212f64d9a&sktid=72f988bf-86f1-41af-91ab-2d7cd011db47&skt=2026-05-22T00%3A26%3A35Z&ske=2026-05-29T00%3A26%3A35Z&sks=b&skv=2025-07-05&sig=z5bKyWJyNkE79dg147uYBU7gMJ1UhVFAFGYTS0OoSSg%3D", "analytic_asset_href": "https://naipeuwest.blob.core.windows.net/naip/v002/pr/2022/pr_030cm_2022/18067/40/m_1806740_nw_19_030_20221014_20230329.tif?st=2026-05-21T07%3A15%3A30Z&se=2026-05-22T08%3A00%3A30Z&sp=rl&sv=2025-07-05&sr=c&skoid=9c8ff44a-6a2c-4dfb-b298-1c9212f64d9a&sktid=72f988bf-86f1-41af-91ab-2d7cd011db47&skt=2026-05-22T00%3A26%3A35Z&ske=2026-05-29T00%3A26%3A35Z&sks=b&skv=2025-07-05&sig=z5bKyWJyNkE79dg147uYBU7gMJ1UhVFAFGYTS0OoSSg%3D" }, "geometry": { "type": "Polygon", "coordinates": [ [ [ -67.059697, 18.434142 ], [ -67.058926, 18.502684 ], [ -67.127804, 18.503378 ], [ -67.128548, 18.434834 ], [ -67.059697, 18.434142 ] ] ] } },
{ "type": "Feature", "properties": { "source": "pr_naip", "item_id": "pr_m_1806740_se_19_030_20221014_20230329", "collection_id": "naip", "acquired_at": "2022-10-14 16:00:00+00:00", "gsd": 0.3, "visual_asset_href": "https://naipeuwest.blob.core.windows.net/naip/v002/pr/2022/pr_030cm_2022/18067/40/m_1806740_se_19_030_20221014_20230329.tif?st=2026-05-21T07%3A15%3A30Z&se=2026-05-22T08%3A00%3A30Z&sp=rl&sv=2025-07-05&sr=c&skoid=9c8ff44a-6a2c-4dfb-b298-1c9212f64d9a&sktid=72f988bf-86f1-41af-91ab-2d7cd011db47&skt=2026-05-22T00%3A26%3A35Z&ske=2026-05-29T00%3A26%3A35Z&sks=b&skv=2025-07-05&sig=z5bKyWJyNkE79dg147uYBU7gMJ1UhVFAFGYTS0OoSSg%3D", "analytic_asset_href": "https://naipeuwest.blob.core.windows.net/naip/v002/pr/2022/pr_030cm_2022/18067/40/m_1806740_se_19_030_20221014_20230329.tif?st=2026-05-21T07%3A15%3A30Z&se=2026-05-22T08%3A00%3A30Z&sp=rl&sv=2025-07-05&sr=c&skoid=9c8ff44a-6a2c-4dfb-b298-1c9212f64d9a&sktid=72f988bf-86f1-41af-91ab-2d7cd011db47&skt=2026-05-22T00%3A26%3A35Z&ske=2026-05-29T00%3A26%3A35Z&sks=b&skv=2025-07-05&sig=z5bKyWJyNkE79dg147uYBU7gMJ1UhVFAFGYTS0OoSSg%3D" }, "geometry": { "type": "Polygon", "coordinates": [ [ [ -66.997201, 18.371623 ], [ -66.996408, 18.440182 ], [ -67.065301, 18.440897 ], [ -67.066067, 18.372336 ], [ -66.997201, 18.371623 ] ] ] } },
{ "type": "Feature", "properties": { "source": "pr_naip", "item_id": "m_1806648_nw_19_060_20220328", "collection_id": null, "acquired_at": "2022-03-28 00:00:00+00:00", "gsd": null, "visual_asset_href": "https://coastalimagery.blob.core.windows.net/digitalcoast/PR_NAIP_2021_9825/m_1806648_nw_19_060_20220328.tif", "analytic_asset_href": null }, "geometry": { "type": "Polygon", "coordinates": [ [ [ -66.127939075793407, 18.309712037760491 ], [ -66.127939075793407, 18.377789024080286 ], [ -66.059496338510911, 18.377789024080286 ], [ -66.059496338510911, 18.309712037760491 ], [ -66.127939075793407, 18.309712037760491 ] ] ] } },
{ "type": "Feature", "properties": { "source": "pr_naip", "item_id": "m_1806648_sw_19_060_20220328", "collection_id": null, "acquired_at": "2022-03-28 00:00:00+00:00", "gsd": null, "visual_asset_href": "https://coastalimagery.blob.core.windows.net/digitalcoast/PR_NAIP_2021_9825/m_1806648_sw_19_060_20220328.tif", "analytic_asset_href": null }, "geometry": { "type": "Polygon", "coordinates": [ [ [ -66.127948084405944, 18.247197385187754 ], [ -66.127948084405944, 18.31532562389787 ], [ -66.059532743931356, 18.31532562389787 ], [ -66.059532743931356, 18.247197385187754 ], [ -66.127948084405944, 18.247197385187754 ] ] ] } },
{ "type": "Feature", "properties": { "source": "pr_naip", "item_id": "m_1806533_sw_20_060_20220327", "collection_id": null, "acquired_at": "2022-03-27 00:00:00+00:00", "gsd": null, "visual_asset_href": "https://coastalimagery.blob.core.windows.net/digitalcoast/PR_NAIP_2021_9825/m_1806533_sw_20_060_20220327.tif", "analytic_asset_href": null }, "geometry": { "type": "Polygon", "coordinates": [ [ [ -66.003021880407346, 18.372171981091686 ], [ -66.003021880407346, 18.440379134514622 ], [ -65.934472212762643, 18.440379134514622 ], [ -65.934472212762643, 18.372171981091686 ], [ -66.003021880407346, 18.372171981091686 ] ] ] } },
{ "type": "Feature", "properties": { "source": "pr_naip", "item_id": "m_1806640_se_19_060_20220327", "collection_id": null, "acquired_at": "2022-03-27 00:00:00+00:00", "gsd": null, "visual_asset_href": "https://coastalimagery.blob.core.windows.net/digitalcoast/PR_NAIP_2021_9825/m_1806640_se_19_060_20220327.tif", "analytic_asset_href": null }, "geometry": { "type": "Polygon", "coordinates": [ [ [ -66.065513814624822, 18.37217167341667 ], [ -66.065513814624822, 18.44032500698296 ], [ -65.996964583838718, 18.44032500698296 ], [ -65.996964583838718, 18.37217167341667 ], [ -66.065513814624822, 18.37217167341667 ] ] ] } },
{ "type": "Feature", "properties": { "source": "pr_naip", "item_id": "m_1806640_sw_19_060_20220315", "collection_id": null, "acquired_at": "2022-03-15 00:00:00+00:00", "gsd": null, "visual_asset_href": "https://coastalimagery.blob.core.windows.net/digitalcoast/PR_NAIP_2021_9825/m_1806640_sw_19_060_20220315.tif", "analytic_asset_href": null }, "geometry": { "type": "Polygon", "coordinates": [ [ [ -66.12798338962557, 18.372227210844962 ], [ -66.12798338962557, 18.440307085983406 ], [ -66.059512252685181, 18.440307085983406 ], [ -66.059512252685181, 18.372227210844962 ], [ -66.12798338962557, 18.372227210844962 ] ] ] } },
{ "type": "Feature", "properties": { "source": "pr_naip", "item_id": "m_1806648_ne_19_060_20220315", "collection_id": null, "acquired_at": "2022-03-15 00:00:00+00:00", "gsd": null, "visual_asset_href": "https://coastalimagery.blob.core.windows.net/digitalcoast/PR_NAIP_2021_9825/m_1806648_ne_19_060_20220315.tif", "analytic_asset_href": null }, "geometry": { "type": "Polygon", "coordinates": [ [ [ -66.065491148415475, 18.30971382802424 ], [ -66.065491148415475, 18.377810033781103 ], [ -65.99697134519414, 18.377810033781103 ], [ -65.99697134519414, 18.30971382802424 ], [ -66.065491148415475, 18.30971382802424 ] ] ] } },
{ "type": "Feature", "properties": { "source": "pr_naip", "item_id": "m_1806633_se_19_060_20220124", "collection_id": null, "acquired_at": "2022-01-24 00:00:00+00:00", "gsd": null, "visual_asset_href": "https://coastalimagery.blob.core.windows.net/digitalcoast/PR_NAIP_2021_9825/m_1806633_se_19_060_20220124.tif", "analytic_asset_href": null }, "geometry": { "type": "Polygon", "coordinates": [ [ [ -66.940149256690461, 18.372478937351744 ], [ -66.940149256690461, 18.440038062036685 ], [ -66.872294836815328, 18.440038062036685 ], [ -66.872294836815328, 18.372478937351744 ], [ -66.940149256690461, 18.372478937351744 ] ] ] } },
{ "type": "Feature", "properties": { "source": "pr_naip", "item_id": "m_1806633_sw_19_060_20220124", "collection_id": null, "acquired_at": "2022-01-24 00:00:00+00:00", "gsd": null, "visual_asset_href": "https://coastalimagery.blob.core.windows.net/digitalcoast/PR_NAIP_2021_9825/m_1806633_sw_19_060_20220124.tif", "analytic_asset_href": null }, "geometry": { "type": "Polygon", "coordinates": [ [ [ -67.002651941273541, 18.372517021017348 ], [ -67.002651941273541, 18.440002600989999 ], [ -66.934819626779358, 18.440002600989999 ], [ -66.934819626779358, 18.372517021017348 ], [ -67.002651941273541, 18.372517021017348 ] ] ] } },
{ "type": "Feature", "properties": { "source": "pr_naip", "item_id": "m_1806641_ne_19_060_20220124", "collection_id": null, "acquired_at": "2022-01-24 00:00:00+00:00", "gsd": null, "visual_asset_href": "https://coastalimagery.blob.core.windows.net/digitalcoast/PR_NAIP_2021_9825/m_1806641_ne_19_060_20220124.tif", "analytic_asset_href": null }, "geometry": { "type": "Polygon", "coordinates": [ [ [ -66.940152375987338, 18.309987053350863 ], [ -66.940152375987338, 18.377544135413096 ], [ -66.872325044759322, 18.377544135413096 ], [ -66.872325044759322, 18.309987053350863 ], [ -66.940152375987338, 18.309987053350863 ] ] ] } },
{ "type": "Feature", "properties": { "source": "pr_naip", "item_id": "m_1806641_nw_19_060_20220124", "collection_id": null, "acquired_at": "2022-01-24 00:00:00+00:00", "gsd": null, "visual_asset_href": "https://coastalimagery.blob.core.windows.net/digitalcoast/PR_NAIP_2021_9825/m_1806641_nw_19_060_20220124.tif", "analytic_asset_href": null }, "geometry": { "type": "Polygon", "coordinates": [ [ [ -67.002632569697411, 18.310022816762469 ], [ -67.002632569697411, 18.377506434702163 ], [ -66.934827248193187, 18.377506434702163 ], [ -66.934827248193187, 18.310022816762469 ], [ -67.002632569697411, 18.310022816762469 ] ] ] } },
{ "type": "Feature", "properties": { "source": "pr_naip", "item_id": "m_1806740_se_19_060_20220124", "collection_id": null, "acquired_at": "2022-01-24 00:00:00+00:00", "gsd": null, "visual_asset_href": "https://coastalimagery.blob.core.windows.net/digitalcoast/PR_NAIP_2021_9825/m_1806740_se_19_060_20220124.tif", "analytic_asset_href": null }, "geometry": { "type": "Polygon", "coordinates": [ [ [ -67.065100032590493, 18.372534564143983 ], [ -67.065100032590493, 18.440000165999134 ], [ -66.997345998667399, 18.440000165999134 ], [ -66.997345998667399, 18.372534564143983 ], [ -67.065100032590493, 18.372534564143983 ] ] ] } },
{ "type": "Feature", "properties": { "source": "pr_naip", "item_id": "m_1806639_ne_19_060_20220123", "collection_id": null, "acquired_at": "2022-01-23 00:00:00+00:00", "gsd": null, "visual_asset_href": "https://coastalimagery.blob.core.windows.net/digitalcoast/PR_NAIP_2021_9825/m_1806639_ne_19_060_20220123.tif", "analytic_asset_href": null }, "geometry": { "type": "Polygon", "coordinates": [ [ [ -66.190463803754639, 18.434725056463954 ], [ -66.190463803754639, 18.502788409876452 ], [ -66.122041553108104, 18.502788409876452 ], [ -66.122041553108104, 18.434725056463954 ], [ -66.190463803754639, 18.434725056463954 ] ] ] } },
{ "type": "Feature", "properties": { "source": "pr_naip", "item_id": "m_1806640_ne_19_060_20220123", "collection_id": null, "acquired_at": "2022-01-23 00:00:00+00:00", "gsd": null, "visual_asset_href": "https://coastalimagery.blob.core.windows.net/digitalcoast/PR_NAIP_2021_9825/m_1806640_ne_19_060_20220123.tif", "analytic_asset_href": null }, "geometry": { "type": "Polygon", "coordinates": [ [ [ -66.065475363653732, 18.43468332043798 ], [ -66.065475363653732, 18.502838737114221 ], [ -65.996954266381863, 18.502838737114221 ], [ -65.996954266381863, 18.43468332043798 ], [ -66.065475363653732, 18.43468332043798 ] ] ] } },
{ "type": "Feature", "properties": { "source": "pr_naip", "item_id": "m_1806640_nw_19_060_20220123", "collection_id": null, "acquired_at": "2022-01-23 00:00:00+00:00", "gsd": null, "visual_asset_href": "https://coastalimagery.blob.core.windows.net/digitalcoast/PR_NAIP_2021_9825/m_1806640_nw_19_060_20220123.tif", "analytic_asset_href": null }, "geometry": { "type": "Polygon", "coordinates": [ [ [ -66.127968486693078, 18.434687872515642 ], [ -66.127968486693078, 18.502823925658358 ], [ -66.059524697718516, 18.502823925658358 ], [ -66.059524697718516, 18.434687872515642 ], [ -66.127968486693078, 18.434687872515642 ] ] ] } },
{ "type": "Feature", "properties": { "source": "pr_naip", "item_id": "m_1806625_sw_19_060_20220113", "collection_id": null, "acquired_at": "2022-01-13 00:00:00+00:00", "gsd": null, "visual_asset_href": "https://coastalimagery.blob.core.windows.net/digitalcoast/PR_NAIP_2021_9825/m_1806625_sw_19_060_20220113.tif", "analytic_asset_href": null }, "geometry": { "type": "Polygon", "coordinates": [ [ [ -67.002626830279056, 18.497504898178125 ], [ -67.002626830279056, 18.564993149445453 ], [ -66.934854064352763, 18.564993149445453 ], [ -66.934854064352763, 18.497504898178125 ], [ -67.002626830279056, 18.497504898178125 ] ] ] } },
{ "type": "Feature", "properties": { "source": "pr_naip", "item_id": "m_1806633_nw_19_060_20220113", "collection_id": null, "acquired_at": "2022-01-13 00:00:00+00:00", "gsd": null, "visual_asset_href": "https://coastalimagery.blob.core.windows.net/digitalcoast/PR_NAIP_2021_9825/m_1806633_nw_19_060_20220113.tif", "analytic_asset_href": null }, "geometry": { "type": "Polygon", "coordinates": [ [ [ -67.0026689634295, 18.435010841898997 ], [ -67.0026689634295, 18.502498381455734 ], [ -66.934809561996303, 18.502498381455734 ], [ -66.934809561996303, 18.435010841898997 ], [ -67.0026689634295, 18.435010841898997 ] ] ] } },
{ "type": "Feature", "properties": { "source": "pr_naip", "item_id": "m_1806732_se_19_060_20220113", "collection_id": null, "acquired_at": "2022-01-13 00:00:00+00:00", "gsd": null, "visual_asset_href": "https://coastalimagery.blob.core.windows.net/digitalcoast/PR_NAIP_2021_9825/m_1806732_se_19_060_20220113.tif", "analytic_asset_href": null }, "geometry": { "type": "Polygon", "coordinates": [ [ [ -67.065120141176848, 18.497526312621229 ], [ -67.065120141176848, 18.564994936214603 ], [ -66.997369038392691, 18.564994936214603 ], [ -66.997369038392691, 18.497526312621229 ], [ -67.065120141176848, 18.497526312621229 ] ] ] } },
{ "type": "Feature", "properties": { "source": "pr_naip", "item_id": "m_1806732_sw_19_060_20220113", "collection_id": null, "acquired_at": "2022-01-13 00:00:00+00:00", "gsd": null, "visual_asset_href": "https://coastalimagery.blob.core.windows.net/digitalcoast/PR_NAIP_2021_9825/m_1806732_sw_19_060_20220113.tif", "analytic_asset_href": null }, "geometry": { "type": "Polygon", "coordinates": [ [ [ -67.127615527220499, 18.497527049813325 ], [ -67.127615527220499, 18.564975987179402 ], [ -67.059886211075806, 18.564975987179402 ], [ -67.059886211075806, 18.497527049813325 ], [ -67.127615527220499, 18.497527049813325 ] ] ] } },
{ "type": "Feature", "properties": { "source": "pr_naip", "item_id": "m_1806740_ne_19_060_20220113", "collection_id": null, "acquired_at": "2022-01-13 00:00:00+00:00", "gsd": null, "visual_asset_href": "https://coastalimagery.blob.core.windows.net/digitalcoast/PR_NAIP_2021_9825/m_1806740_ne_19_060_20220113.tif", "analytic_asset_href": null }, "geometry": { "type": "Polygon", "coordinates": [ [ [ -67.065139620533117, 18.435030630724309 ], [ -67.065139620533117, 18.502498046460989 ], [ -66.997358609491513, 18.502498046460989 ], [ -66.997358609491513, 18.435030630724309 ], [ -67.065139620533117, 18.435030630724309 ] ] ] } },
{ "type": "Feature", "properties": { "source": "pr_naip", "item_id": "m_1806740_nw_19_060_20220113", "collection_id": null, "acquired_at": "2022-01-13 00:00:00+00:00", "gsd": null, "visual_asset_href": "https://coastalimagery.blob.core.windows.net/digitalcoast/PR_NAIP_2021_9825/m_1806740_nw_19_060_20220113.tif", "analytic_asset_href": null }, "geometry": { "type": "Polygon", "coordinates": [ [ [ -67.127612351300201, 18.435029261637091 ], [ -67.127612351300201, 18.502477050252281 ], [ -67.059853039839652, 18.502477050252281 ], [ -67.059853039839652, 18.435029261637091 ], [ -67.127612351300201, 18.435029261637091 ] ] ] } }
]
}
